<?xml version="1.0" encoding="UTF-8" ?><gpx version="1.1" creator="GPSLogger 137 - http://gpslogger.mendhak.com/" xmlns:xsi="http://www.w3.org/2001/XMLSchema-instance" xmlns="http://www.topografix.com/GPX/1/1" xmlns:gpxtpx="http://www.garmin.com/xmlschemas/TrackPointExtension/v2" xsi:schemaLocation="http://www.topografix.com/GPX/1/1 http://www.topografix.com/GPX/1/1/gpx.xsd http://www.garmin.com/xmlschemas/TrackPointExtension/v2 https://www8.garmin.com/xmlschemas/TrackPointExtensionv2.xsd "><metadata><time>2026-09-12T04:14:54.000Z</time></metadata><trk><name>20260912</name><trkseg><trkpt lat="18.54061644" lon="73.5123752"><ele>608.9935302734375</ele><time>2026-09-12T04:14:54.000Z</time><src>gps</src><sat>69</sat><hdop>0.3</hdop><vdop>0.5</vdop><pdop>0.6</pdop><extensions><gpxtpx:TrackPointExtension><gpxtpx:speed>0.0</gpxtpx:speed></gpxtpx:TrackPointExtension></extensions></trkpt>
<trkpt lat="18.5433839" lon="73.515494"><ele>623.437255859375</ele><time>2026-09-12T04:17:02.000Z</time><geoidheight>-72.0</geoidheight><src>gps</src><sat>69</sat><hdop>0.3</hdop><vdop>0.5</vdop><pdop>0.6</pdop><extensions><gpxtpx:TrackPointExtension><gpxtpx:bearing>93.3</gpxtpx:bearing><gpxtpx:speed>3.14</gpxtpx:speed></gpxtpx:TrackPointExtension></extensions></trkpt>
<trkpt lat="18.53884829" lon="73.51744814"><ele>611.9954833984375</ele><time>2026-09-12T04:18:09.000Z</time><geoidheight>-72.0</geoidheight><src>gps</src><sat>70</sat><hdop>0.3</hdop><vdop>0.5</vdop><pdop>0.6</pdop><extensions><gpxtpx:TrackPointExtension><gpxtpx:bearing>190.2</gpxtpx:bearing><gpxtpx:speed>7.63</gpxtpx:speed></gpxtpx:TrackPointExtension></extensions></trkpt>
<trkpt lat="18.53572713" lon="73.51458773"><ele>577.88427734375</ele><time>2026-09-12T04:19:16.000Z</time><geoidheight>-72.0</geoidheight><src>gps</src><sat>60</sat><hdop>0.4</hdop><vdop>0.6</vdop><pdop>0.7</pdop><extensions><gpxtpx:TrackPointExtension><gpxtpx:bearing>38.1</gpxtpx:bearing><gpxtpx:speed>8.8</gpxtpx:speed></gpxtpx:TrackPointExtension></extensions></trkpt>
<trkpt lat="18.53354334" lon="73.51597031"><ele>540.4931640625</ele><time>2026-09-12T04:20:22.000Z</time><geoidheight>-72.0</geoidheight><src>gps</src><sat>55</sat><hdop>0.4</hdop><vdop>0.7</vdop><pdop>0.8</pdop><extensions><gpxtpx:TrackPointExtension><gpxtpx:bearing>118.3</gpxtpx:bearing><gpxtpx:speed>4.63</gpxtpx:speed></gpxtpx:TrackPointExtension></extensions></trkpt>
<trkpt lat="18.52979196" lon="73.5160351"><ele>507.268798828125</ele><time>2026-09-12T04:21:29.000Z</time><geoidheight>-72.0</geoidheight><src>gps</src><sat>70</sat><hdop>0.3</hdop><vdop>0.5</vdop><pdop>0.6</pdop><extensions><gpxtpx:TrackPointExtension><gpxtpx:bearing>198.2</gpxtpx:bearing><gpxtpx:speed>10.41</gpxtpx:speed></gpxtpx:TrackPointExtension></extensions></trkpt>
<trkpt lat="18.53172929" lon="73.53653902"><ele>508.5576171875</ele><time>2026-09-12T04:24:37.000Z</time><geoidheight>-72.0</geoidheight><src>gps</src><sat>72</sat><hdop>0.3</hdop><vdop>0.5</vdop><pdop>0.6</pdop><extensions><gpxtpx:TrackPointExtension><gpxtpx:bearing>84.8</gpxtpx:bearing><gpxtpx:speed>16.56</gpxtpx:speed></gpxtpx:TrackPointExtension></extensions></trkpt>
<trkpt lat="18.53197691" lon="73.5469628"><ele>507.7269287109375</ele><time>2026-09-12T04:25:43.000Z</time><geoidheight>-72.0</geoidheight><src>gps</src><sat>72</sat><extensions><gpxtpx:TrackPointExtension><gpxtpx:bearing>94.5</gpxtpx:bearing><gpxtpx:speed>17.18</gpxtpx:speed></gpxtpx:TrackPointExtension></extensions></trkpt>
<trkpt lat="18.5311119" lon="73.55660066"><ele>506.3731689453125</ele><time>2026-09-12T04:26:49.000Z</time><geoidheight>-72.0</geoidheight><src>gps</src><sat>71</sat><hdop>0.3</hdop><vdop>0.5</vdop><pdop>0.6</pdop><extensions><gpxtpx:TrackPointExtension><gpxtpx:bearing>85.8</gpxtpx:bearing><gpxtpx:speed>15.56</gpxtpx:speed></gpxtpx:TrackPointExtension></extensions></trkpt>
<trkpt lat="18.53111612" lon="73.56668696"><ele>514.9845581054688</ele><time>2026-09-12T04:27:55.000Z</time><geoidheight>-72.0</geoidheight><src>gps</src><sat>74</sat><hdop>0.3</hdop><vdop>0.5</vdop><pdop>0.6</pdop><extensions><gpxtpx:TrackPointExtension><gpxtpx:bearing>102.5</gpxtpx:bearing><gpxtpx:speed>16.27</gpxtpx:speed></gpxtpx:TrackPointExtension></extensions></trkpt>
<trkpt lat="18.52739627" lon="73.57554794"><ele>505.989501953125</ele><time>2026-09-12T04:29:02.000Z</time><geoidheight>-72.0</geoidheight><src>gps</src><sat>70</sat><hdop>0.3</hdop><vdop>0.5</vdop><pdop>0.6</pdop><extensions><gpxtpx:TrackPointExtension><gpxtpx:bearing>110.2</gpxtpx:bearing><gpxtpx:speed>15.74</gpxtpx:speed></gpxtpx:TrackPointExtension></extensions></trkpt>
<trkpt lat="18.52440671" lon="73.59348624"><ele>499.92535400390625</ele><time>2026-09-12T04:31:09.000Z</time><geoidheight>-72.0</geoidheight><src>gps</src><sat>75</sat><hdop>0.3</hdop><vdop>0.4</vdop><pdop>0.5</pdop><extensions><gpxtpx:TrackPointExtension><gpxtpx:bearing>90.2</gpxtpx:bearing><gpxtpx:speed>14.13</gpxtpx:speed></gpxtpx:TrackPointExtension></extensions></trkpt>
<trkpt lat="18.52435651" lon="73.60249794"><ele>500.95654296875</ele><time>2026-09-12T04:32:15.000Z</time><geoidheight>-72.0</geoidheight><src>gps</src><sat>73</sat><hdop>0.3</hdop><vdop>0.5</vdop><pdop>0.6</pdop><extensions><gpxtpx:TrackPointExtension><gpxtpx:bearing>92.7</gpxtpx:bearing><gpxtpx:speed>14.59</gpxtpx:speed></gpxtpx:TrackPointExtension></extensions></trkpt>
<trkpt lat="18.52359765" lon="73.61053202"><ele>507.32275390625</ele><time>2026-09-12T04:33:22.000Z</time><geoidheight>-72.0</geoidheight><src>gps</src><sat>71</sat><hdop>0.3</hdop><vdop>0.5</vdop><pdop>0.6</pdop><extensions><gpxtpx:TrackPointExtension><gpxtpx:bearing>122.5</gpxtpx:bearing><gpxtpx:speed>11.11</gpxtpx:speed></gpxtpx:TrackPointExtension></extensions></trkpt>
<trkpt lat="18.52384591" lon="73.61570952"><ele>517.9359130859375</ele><time>2026-09-12T04:34:28.000Z</time><geoidheight>-72.0</geoidheight><src>gps</src><sat>68</sat><hdop>0.3</hdop><vdop>0.5</vdop><pdop>0.6</pdop><extensions><gpxtpx:TrackPointExtension><gpxtpx:bearing>4.0</gpxtpx:bearing><gpxtpx:speed>7.19</gpxtpx:speed></gpxtpx:TrackPointExtension></extensions></trkpt>
<trkpt lat="18.52556169" lon="73.61784036"><ele>518.4546508789062</ele><time>2026-09-12T04:35:34.000Z</time><geoidheight>-72.0</geoidheight><src>gps</src><sat>74</sat><hdop>0.3</hdop><vdop>0.5</vdop><pdop>0.5</pdop><extensions><gpxtpx:TrackPointExtension><gpxtpx:bearing>321.7</gpxtpx:bearing><gpxtpx:speed>6.58</gpxtpx:speed></gpxtpx:TrackPointExtension></extensions></trkpt>
<trkpt lat="18.52948546" lon="73.62369322"><ele>511.267333984375</ele><time>2026-09-12T04:36:40.000Z</time><geoidheight>-72.0</geoidheight><src>gps</src><sat>76</sat><hdop>0.3</hdop><vdop>0.5</vdop><pdop>0.5</pdop><extensions><gpxtpx:TrackPointExtension><gpxtpx:bearing>45.5</gpxtpx:bearing><gpxtpx:speed>9.67</gpxtpx:speed></gpxtpx:TrackPointExtension></extensions></trkpt>
<trkpt lat="18.53220196" lon="73.63023441"><ele>505.2711181640625</ele><time>2026-09-12T04:37:45.000Z</time><geoidheight>-72.0</geoidheight><src>gps</src><sat>75</sat><hdop>0.3</hdop><vdop>0.5</vdop><pdop>0.5</pdop><extensions><gpxtpx:TrackPointExtension><gpxtpx:bearing>71.1</gpxtpx:bearing><gpxtpx:speed>11.36</gpxtpx:speed></gpxtpx:TrackPointExtension></extensions></trkpt>
<trkpt lat="18.53258619" lon="73.63373911"><ele>504.565673828125</ele><time>2026-09-12T04:38:52.000Z</time><geoidheight>-72.0</geoidheight><src>gps</src><sat>73</sat><hdop>0.3</hdop><vdop>0.5</vdop><pdop>0.6</pdop><extensions><gpxtpx:TrackPointExtension><gpxtpx:bearing>87.5</gpxtpx:bearing><gpxtpx:speed>6.58</gpxtpx:speed></gpxtpx:TrackPointExtension></extensions></trkpt>
<trkpt lat="18.53443855" lon="73.64072663"><ele>501.939697265625</ele><time>2026-09-12T04:39:58.000Z</time><geoidheight>-72.0</geoidheight><src>gps</src><sat>72</sat><hdop>0.3</hdop><vdop>0.5</vdop><pdop>0.6</pdop><extensions><gpxtpx:TrackPointExtension><gpxtpx:bearing>74.3</gpxtpx:bearing><gpxtpx:speed>14.07</gpxtpx:speed></gpxtpx:TrackPointExtension></extensions></trkpt>
<trkpt lat="18.5349097" lon="73.64903114"><ele>497.871826171875</ele><time>2026-09-12T04:41:05.000Z</time><geoidheight>-72.0</geoidheight><src>gps</src><sat>72</sat><hdop>0.3</hdop><vdop>0.5</vdop><pdop>0.6</pdop><extensions><gpxtpx:TrackPointExtension><gpxtpx:bearing>95.2</gpxtpx:bearing><gpxtpx:speed>14.74</gpxtpx:speed></gpxtpx:TrackPointExtension></extensions></trkpt>
<trkpt lat="18.53369395" lon="73.65702169"><ele>500.225341796875</ele><time>2026-09-12T04:42:12.000Z</time><geoidheight>-72.0</geoidheight><src>gps</src><sat>73</sat><hdop>0.3</hdop><vdop>0.5</vdop><pdop>0.6</pdop><extensions><gpxtpx:TrackPointExtension><gpxtpx:bearing>133.8</gpxtpx:bearing><gpxtpx:speed>12.23</gpxtpx:speed></gpxtpx:TrackPointExtension></extensions></trkpt>
<trkpt lat="18.53345467" lon="73.66338989"><ele>511.27679443359375</ele><time>2026-09-12T04:43:17.000Z</time><geoidheight>-72.0</geoidheight><src>gps</src><sat>74</sat><hdop>0.3</hdop><vdop>0.5</vdop><pdop>0.6</pdop><extensions><gpxtpx:TrackPointExtension><gpxtpx:bearing>125.1</gpxtpx:bearing><gpxtpx:speed>8.99</gpxtpx:speed></gpxtpx:TrackPointExtension></extensions></trkpt>
<trkpt lat="18.5316874" lon="73.66831394"><ele>507.9466552734375</ele><time>2026-09-12T04:44:23.000Z</time><geoidheight>-72.0</geoidheight><src>gps</src><sat>75</sat><hdop>0.3</hdop><vdop>0.5</vdop><pdop>0.6</pdop><extensions><gpxtpx:TrackPointExtension><gpxtpx:bearing>93.3</gpxtpx:bearing><gpxtpx:speed>9.76</gpxtpx:speed></gpxtpx:TrackPointExtension></extensions></trkpt>
<trkpt lat="18.53696818" lon="73.66944922"><ele>499.65826416015625</ele><time>2026-09-12T04:45:29.000Z</time><geoidheight>-71.9</geoidheight><src>gps</src><sat>75</sat><hdop>0.3</hdop><vdop>0.5</vdop><pdop>0.6</pdop><extensions><gpxtpx:TrackPointExtension><gpxtpx:bearing>1.1</gpxtpx:bearing><gpxtpx:speed>12.02</gpxtpx:speed></gpxtpx:TrackPointExtension></extensions></trkpt>
<trkpt lat="18.54421419" lon="73.66911278"><ele>506.5643310546875</ele><time>2026-09-12T04:46:35.000Z</time><geoidheight>-71.9</geoidheight><src>gps</src><sat>76</sat><hdop>0.3</hdop><vdop>0.5</vdop><pdop>0.6</pdop><extensions><gpxtpx:TrackPointExtension><gpxtpx:bearing>344.2</gpxtpx:bearing><gpxtpx:speed>7.51</gpxtpx:speed></gpxtpx:TrackPointExtension></extensions></trkpt>
<trkpt lat="18.54933606" lon="73.66857974"><ele>514.139892578125</ele><time>2026-09-12T04:47:41.000Z</time><geoidheight>-71.9</geoidheight><src>gps</src><sat>75</sat><hdop>0.3</hdop><vdop>0.5</vdop><pdop>0.6</pdop><extensions><gpxtpx:TrackPointExtension><gpxtpx:bearing>13.1</gpxtpx:bearing><gpxtpx:speed>12.12</gpxtpx:speed></gpxtpx:TrackPointExtension></extensions></trkpt>
<trkpt lat="18.55541988" lon="73.66807759"><ele>526.8211669921875</ele><time>2026-09-12T04:48:47.000Z</time><geoidheight>-71.9</geoidheight><src>gps</src><sat>74</sat><hdop>0.3</hdop><vdop>0.5</vdop><pdop>0.6</pdop><extensions><gpxtpx:TrackPointExtension><gpxtpx:bearing>336.4</gpxtpx:bearing><gpxtpx:speed>10.81</gpxtpx:speed></gpxtpx:TrackPointExtension></extensions></trkpt>
<trkpt lat="18.56460678" lon="73.67489069"><ele>559.583740234375</ele><time>2026-09-12T04:51:00.000Z</time><geoidheight>-71.8</geoidheight><src>gps</src><sat>71</sat><hdop>0.3</hdop><vdop>0.5</vdop><pdop>0.6</pdop><extensions><gpxtpx:TrackPointExtension><gpxtpx:bearing>38.0</gpxtpx:bearing><gpxtpx:speed>5.32</gpxtpx:speed></gpxtpx:TrackPointExtension></extensions></trkpt>
<trkpt lat="18.57053898" lon="73.67694835"><ele>577.881103515625</ele><time>2026-09-12T04:52:06.000Z</time><geoidheight>-71.8</geoidheight><src>gps</src><sat>65</sat><hdop>0.3</hdop><vdop>0.5</vdop><pdop>0.6</pdop><extensions><gpxtpx:TrackPointExtension><gpxtpx:bearing>33.4</gpxtpx:bearing><gpxtpx:speed>11.48</gpxtpx:speed></gpxtpx:TrackPointExtension></extensions></trkpt>
<trkpt lat="18.57300869" lon="73.68221663"><ele>582.13037109375</ele><time>2026-09-12T04:53:12.000Z</time><geoidheight>-71.8</geoidheight><src>gps</src><sat>45</sat><hdop>0.4</hdop><vdop>0.6</vdop><pdop>0.7</pdop><extensions><gpxtpx:TrackPointExtension><gpxtpx:bearing>51.7</gpxtpx:bearing><gpxtpx:speed>7.32</gpxtpx:speed></gpxtpx:TrackPointExtension></extensions></trkpt>
<trkpt lat="18.5735254" lon="73.68794008"><ele>560.900390625</ele><time>2026-09-12T04:54:18.000Z</time><geoidheight>-71.8</geoidheight><src>gps</src><sat>63</sat><hdop>0.3</hdop><vdop>0.5</vdop><pdop>0.6</pdop><extensions><gpxtpx:TrackPointExtension><gpxtpx:bearing>105.3</gpxtpx:bearing><gpxtpx:speed>8.14</gpxtpx:speed></gpxtpx:TrackPointExtension></extensions></trkpt>
<trkpt lat="18.57784168" lon="73.68784265"><ele>542.4892578125</ele><time>2026-09-12T04:55:24.000Z</time><geoidheight>-71.8</geoidheight><src>gps</src><sat>68</sat><hdop>0.3</hdop><vdop>0.5</vdop><pdop>0.6</pdop><extensions><gpxtpx:TrackPointExtension><gpxtpx:bearing>34.4</gpxtpx:bearing><gpxtpx:speed>3.67</gpxtpx:speed></gpxtpx:TrackPointExtension></extensions></trkpt>
<trkpt lat="18.58272558" lon="73.68862798"><ele>552.688720703125</ele><time>2026-09-12T04:56:31.000Z</time><geoidheight>-71.8</geoidheight><src>gps</src><sat>72</sat><hdop>0.3</hdop><vdop>0.5</vdop><pdop>0.6</pdop><extensions><gpxtpx:TrackPointExtension><gpxtpx:bearing>90.8</gpxtpx:bearing><gpxtpx:speed>11.26</gpxtpx:speed></gpxtpx:TrackPointExtension></extensions></trkpt>
<trkpt lat="18.58408317" lon="73.69485675"><ele>550.4066162109375</ele><time>2026-09-12T04:57:37.000Z</time><geoidheight>-71.8</geoidheight><src>gps</src><sat>54</sat><hdop>0.3</hdop><vdop>0.6</vdop><pdop>0.7</pdop><extensions><gpxtpx:TrackPointExtension><gpxtpx:bearing>62.3</gpxtpx:bearing><gpxtpx:speed>9.27</gpxtpx:speed></gpxtpx:TrackPointExtension></extensions></trkpt>
<trkpt lat="18.58775647" lon="73.70187637"><ele>542.467041015625</ele><time>2026-09-12T04:58:43.000Z</time><geoidheight>-71.7</geoidheight><src>gps</src><sat>64</sat><hdop>0.3</hdop><vdop>0.5</vdop><pdop>0.6</pdop><extensions><gpxtpx:TrackPointExtension><gpxtpx:bearing>70.6</gpxtpx:bearing><gpxtpx:speed>8.48</gpxtpx:speed></gpxtpx:TrackPointExtension></extensions></trkpt>
<trkpt lat="18.59167292" lon="73.7071114"><ele>544.1558837890625</ele><time>2026-09-12T04:59:49.000Z</time><geoidheight>-71.7</geoidheight><src>gps</src><sat>68</sat><extensions><gpxtpx:TrackPointExtension><gpxtpx:bearing>22.0</gpxtpx:bearing><gpxtpx:speed>13.54</gpxtpx:speed></gpxtpx:TrackPointExtension></extensions></trkpt>
<trkpt lat="18.59600067" lon="73.71299403"><ele>558.8070068359375</ele><time>2026-09-12T05:00:56.000Z</time><geoidheight>-71.7</geoidheight><src>gps</src><sat>70</sat><hdop>0.3</hdop><vdop>0.5</vdop><pdop>0.6</pdop><extensions><gpxtpx:TrackPointExtension><gpxtpx:bearing>71.5</gpxtpx:bearing><gpxtpx:speed>13.29</gpxtpx:speed></gpxtpx:TrackPointExtension></extensions></trkpt>
<trkpt lat="18.59573403" lon="73.72068027"><ele>535.46533203125</ele><time>2026-09-12T05:02:03.000Z</time><geoidheight>-71.7</geoidheight><src>gps</src><sat>71</sat><hdop>0.3</hdop><vdop>0.5</vdop><pdop>0.6</pdop><extensions><gpxtpx:TrackPointExtension><gpxtpx:bearing>132.3</gpxtpx:bearing><gpxtpx:speed>14.43</gpxtpx:speed></gpxtpx:TrackPointExtension></extensions></trkpt>
<trkpt lat="18.59454406" lon="73.72787601"><ele>529.4814453125</ele><time>2026-09-12T05:03:09.000Z</time><geoidheight>-71.7</geoidheight><src>gps</src><sat>61</sat><hdop>0.3</hdop><vdop>0.5</vdop><pdop>0.6</pdop><extensions><gpxtpx:TrackPointExtension><gpxtpx:bearing>95.0</gpxtpx:bearing><gpxtpx:speed>6.19</gpxtpx:speed></gpxtpx:TrackPointExtension></extensions></trkpt>
<trkpt lat="18.59735866" lon="73.72782567"><ele>526.8251953125</ele><time>2026-09-12T05:04:16.000Z</time><geoidheight>-71.7</geoidheight><src>gps</src><sat>73</sat><hdop>0.3</hdop><vdop>0.5</vdop><pdop>0.6</pdop><extensions><gpxtpx:TrackPointExtension><gpxtpx:speed>0.0</gpxtpx:speed></gpxtpx:TrackPointExtension></extensions></trkpt>
<trkpt lat="18.59938493" lon="73.72976966"><ele>522.1632690429688</ele><time>2026-09-12T05:05:23.000Z</time><geoidheight>-71.7</geoidheight><src>gps</src><sat>78</sat><hdop>0.3</hdop><vdop>0.4</vdop><pdop>0.5</pdop><extensions><gpxtpx:TrackPointExtension><gpxtpx:bearing>57.5</gpxtpx:bearing><gpxtpx:speed>13.41</gpxtpx:speed></gpxtpx:TrackPointExtension></extensions></trkpt>
<trkpt lat="18.59977726" lon="73.73457332"><ele>519.2804565429688</ele><time>2026-09-12T05:06:30.000Z</time><geoidheight>-71.7</geoidheight><src>gps</src><sat>80</sat><hdop>0.3</hdop><vdop>0.4</vdop><pdop>0.5</pdop><extensions><gpxtpx:TrackPointExtension><gpxtpx:bearing>86.7</gpxtpx:bearing><gpxtpx:speed>1.8</gpxtpx:speed></gpxtpx:TrackPointExtension></extensions></trkpt>
<trkpt lat="18.60089954" lon="73.73971559"><ele>513.5980834960938</ele><time>2026-09-12T05:07:35.000Z</time><geoidheight>-71.7</geoidheight><src>gps</src><sat>74</sat><hdop>0.3</hdop><vdop>0.5</vdop><pdop>0.5</pdop><extensions><gpxtpx:TrackPointExtension><gpxtpx:bearing>69.0</gpxtpx:bearing><gpxtpx:speed>9.98</gpxtpx:speed></gpxtpx:TrackPointExtension></extensions></trkpt>
<trkpt lat="18.60241358" lon="73.7443992"><ele>508.1583251953125</ele><time>2026-09-12T05:08:42.000Z</time><geoidheight>-71.7</geoidheight><src>gps</src><sat>75</sat><hdop>0.3</hdop><vdop>0.4</vdop><pdop>0.5</pdop><extensions><gpxtpx:TrackPointExtension><gpxtpx:bearing>62.2</gpxtpx:bearing><gpxtpx:speed>10.76</gpxtpx:speed></gpxtpx:TrackPointExtension></extensions></trkpt>
<trkpt lat="18.60419822" lon="73.75060689"><ele>516.6390991210938</ele><time>2026-09-12T05:09:48.000Z</time><geoidheight>-71.7</geoidheight><src>gps</src><sat>72</sat><hdop>0.3</hdop><vdop>0.5</vdop><pdop>0.5</pdop><extensions><gpxtpx:TrackPointExtension><gpxtpx:bearing>51.7</gpxtpx:bearing><gpxtpx:speed>4.58</gpxtpx:speed></gpxtpx:TrackPointExtension></extensions></trkpt>
<trkpt lat="18.60646237" lon="73.7513785"><ele>514.6729736328125</ele><time>2026-09-12T05:10:54.000Z</time><geoidheight>-71.6</geoidheight><src>gps</src><sat>54</sat><hdop>0.4</hdop><vdop>0.6</vdop><pdop>0.7</pdop><extensions><gpxtpx:TrackPointExtension><gpxtpx:bearing>344.8</gpxtpx:bearing><gpxtpx:speed>5.99</gpxtpx:speed></gpxtpx:TrackPointExtension></extensions></trkpt>
<trkpt lat="18.60950378" lon="73.75039921"><ele>518.27685546875</ele><time>2026-09-12T05:12:00.000Z</time><geoidheight>-71.6</geoidheight><src>gps</src><sat>76</sat><hdop>0.3</hdop><vdop>0.4</vdop><pdop>0.5</pdop><extensions><gpxtpx:TrackPointExtension><gpxtpx:bearing>339.7</gpxtpx:bearing><gpxtpx:speed>5.73</gpxtpx:speed></gpxtpx:TrackPointExtension></extensions></trkpt>
<trkpt lat="18.61190317" lon="73.74944854"><ele>514.2706298828125</ele><time>2026-09-12T05:13:06.000Z</time><geoidheight>-71.6</geoidheight><src>gps</src><sat>71</sat><hdop>0.3</hdop><vdop>0.5</vdop><pdop>0.6</pdop><extensions><gpxtpx:TrackPointExtension><gpxtpx:bearing>337.2</gpxtpx:bearing><gpxtpx:speed>3.37</gpxtpx:speed></gpxtpx:TrackPointExtension></extensions></trkpt>
<trkpt lat="18.61499499" lon="73.74851078"><ele>515.2810668945312</ele><time>2026-09-12T05:14:11.000Z</time><geoidheight>-71.6</geoidheight><src>gps</src><sat>74</sat><hdop>0.3</hdop><vdop>0.5</vdop><pdop>0.5</pdop><extensions><gpxtpx:TrackPointExtension><gpxtpx:bearing>340.1</gpxtpx:bearing><gpxtpx:speed>17.93</gpxtpx:speed></gpxtpx:TrackPointExtension></extensions></trkpt>
<trkpt lat="18.62553712" lon="73.74425379"><ele>508.47216796875</ele><time>2026-09-12T05:15:17.000Z</time><geoidheight>-71.6</geoidheight><src>gps</src><sat>81</sat><hdop>0.3</hdop><vdop>0.4</vdop><pdop>0.5</pdop><extensions><gpxtpx:TrackPointExtension><gpxtpx:bearing>339.3</gpxtpx:bearing><gpxtpx:speed>18.58</gpxtpx:speed></gpxtpx:TrackPointExtension></extensions></trkpt>
<trkpt lat="18.63593101" lon="73.74013706"><ele>500.81982421875</ele><time>2026-09-12T05:16:24.000Z</time><geoidheight>-71.5</geoidheight><src>gps</src><sat>80</sat><hdop>0.3</hdop><extensions><gpxtpx:TrackPointExtension><gpxtpx:bearing>338.0</gpxtpx:bearing><gpxtpx:speed>20.23</gpxtpx:speed></gpxtpx:TrackPointExtension></extensions></trkpt>
<trkpt lat="18.64505347" lon="73.73655011"><ele>504.56268310546875</ele><time>2026-09-12T05:17:30.000Z</time><geoidheight>-71.5</geoidheight><src>gps</src><sat>82</sat><hdop>0.3</hdop><vdop>0.4</vdop><pdop>0.5</pdop><extensions><gpxtpx:TrackPointExtension><gpxtpx:bearing>340.7</gpxtpx:bearing><gpxtpx:speed>13.62</gpxtpx:speed></gpxtpx:TrackPointExtension></extensions></trkpt>
<trkpt lat="18.65505767" lon="73.73252706"><ele>508.5047607421875</ele><time>2026-09-12T05:18:36.000Z</time><geoidheight>-71.5</geoidheight><src>gps</src><sat>79</sat><hdop>0.3</hdop><vdop>0.4</vdop><pdop>0.5</pdop><extensions><gpxtpx:TrackPointExtension><gpxtpx:bearing>339.2</gpxtpx:bearing><gpxtpx:speed>19.51</gpxtpx:speed></gpxtpx:TrackPointExtension></extensions></trkpt>
<trkpt lat="18.66599565" lon="73.72806892"><ele>513.187255859375</ele><time>2026-09-12T05:19:42.000Z</time><geoidheight>-71.4</geoidheight><src>gps</src><sat>66</sat><hdop>0.3</hdop><vdop>0.5</vdop><pdop>0.6</pdop><extensions><gpxtpx:TrackPointExtension><gpxtpx:bearing>338.0</gpxtpx:bearing><gpxtpx:speed>19.03</gpxtpx:speed></gpxtpx:TrackPointExtension></extensions></trkpt>
<trkpt lat="18.67231308" lon="73.72556077"><ele>516.2791748046875</ele><time>2026-09-12T05:20:49.000Z</time><geoidheight>-71.4</geoidheight><src>gps</src><sat>76</sat><hdop>0.3</hdop><vdop>0.5</vdop><pdop>0.5</pdop><extensions><gpxtpx:TrackPointExtension><gpxtpx:bearing>334.7</gpxtpx:bearing><gpxtpx:speed>11.72</gpxtpx:speed></gpxtpx:TrackPointExtension></extensions></trkpt>
<trkpt lat="18.67922536" lon="73.72319587"><ele>539.713134765625</ele><time>2026-09-12T05:21:56.000Z</time><geoidheight>-71.4</geoidheight><src>gps</src><sat>79</sat><hdop>0.3</hdop><vdop>0.4</vdop><pdop>0.5</pdop><extensions><gpxtpx:TrackPointExtension><gpxtpx:bearing>340.6</gpxtpx:bearing><gpxtpx:speed>20.11</gpxtpx:speed></gpxtpx:TrackPointExtension></extensions></trkpt>
<trkpt lat="18.68753421" lon="73.71975423"><ele>543.5625</ele><time>2026-09-12T05:23:02.000Z</time><geoidheight>-71.3</geoidheight><src>gps</src><sat>79</sat><hdop>0.3</hdop><vdop>0.4</vdop><pdop>0.5</pdop><extensions><gpxtpx:TrackPointExtension><gpxtpx:bearing>312.0</gpxtpx:bearing><gpxtpx:speed>17.07</gpxtpx:speed></gpxtpx:TrackPointExtension></extensions></trkpt>
<trkpt lat="18.69498637" lon="73.71061452"><ele>545.136962890625</ele><time>2026-09-12T05:24:07.000Z</time><geoidheight>-71.3</geoidheight><src>gps</src><sat>77</sat><hdop>0.3</hdop><vdop>0.4</vdop><pdop>0.5</pdop><extensions><gpxtpx:TrackPointExtension><gpxtpx:bearing>309.9</gpxtpx:bearing><gpxtpx:speed>17.59</gpxtpx:speed></gpxtpx:TrackPointExtension></extensions></trkpt>
<trkpt lat="18.69806535" lon="73.70056042"><ele>532.336669921875</ele><time>2026-09-12T05:25:13.000Z</time><geoidheight>-71.3</geoidheight><src>gps</src><sat>66</sat><hdop>0.3</hdop><vdop>0.5</vdop><pdop>0.6</pdop><extensions><gpxtpx:TrackPointExtension><gpxtpx:bearing>283.1</gpxtpx:bearing><gpxtpx:speed>18.01</gpxtpx:speed></gpxtpx:TrackPointExtension></extensions></trkpt>
<trkpt lat="18.69984015" lon="73.6928867"><ele>528.6875</ele><time>2026-09-12T05:26:19.000Z</time><geoidheight>-71.3</geoidheight><src>gps</src><sat>79</sat><hdop>0.3</hdop><vdop>0.4</vdop><pdop>0.5</pdop><extensions><gpxtpx:TrackPointExtension><gpxtpx:bearing>261.2</gpxtpx:bearing><gpxtpx:speed>3.33</gpxtpx:speed></gpxtpx:TrackPointExtension></extensions></trkpt>
<trkpt lat="18.70017478" lon="73.6914959"><ele>529.95556640625</ele><time>2026-09-12T05:27:25.000Z</time><geoidheight>-71.3</geoidheight><src>gps</src><sat>73</sat><hdop>0.3</hdop><vdop>0.4</vdop><pdop>0.5</pdop><extensions><gpxtpx:TrackPointExtension><gpxtpx:bearing>292.0</gpxtpx:bearing><gpxtpx:speed>3.66</gpxtpx:speed></gpxtpx:TrackPointExtension></extensions></trkpt>
<trkpt lat="18.70270207" lon="73.68784377"><ele>534.4619140625</ele><time>2026-09-12T05:28:31.000Z</time><geoidheight>-71.3</geoidheight><src>gps</src><sat>79</sat><hdop>0.3</hdop><vdop>0.4</vdop><pdop>0.5</pdop><extensions><gpxtpx:TrackPointExtension><gpxtpx:bearing>314.3</gpxtpx:bearing><gpxtpx:speed>4.88</gpxtpx:speed></gpxtpx:TrackPointExtension></extensions></trkpt>
<trkpt lat="18.70680184" lon="73.68373191"><ele>546.955078125</ele><time>2026-09-12T05:29:37.000Z</time><geoidheight>-71.3</geoidheight><src>gps</src><sat>75</sat><hdop>0.3</hdop><vdop>0.5</vdop><pdop>0.5</pdop><extensions><gpxtpx:TrackPointExtension><gpxtpx:bearing>320.1</gpxtpx:bearing><gpxtpx:speed>9.04</gpxtpx:speed></gpxtpx:TrackPointExtension></extensions></trkpt>
<trkpt lat="18.71261964" lon="73.67826189"><ele>563.3314208984375</ele><time>2026-09-12T05:30:44.000Z</time><geoidheight>-71.2</geoidheight><src>gps</src><sat>73</sat><hdop>0.3</hdop><vdop>0.4</vdop><pdop>0.5</pdop><extensions><gpxtpx:TrackPointExtension><gpxtpx:bearing>305.1</gpxtpx:bearing><gpxtpx:speed>15.42</gpxtpx:speed></gpxtpx:TrackPointExtension></extensions></trkpt>
<trkpt lat="18.7172572" lon="73.67266275"><ele>573.9361572265625</ele><time>2026-09-12T05:31:51.000Z</time><geoidheight>-71.2</geoidheight><src>gps</src><sat>75</sat><hdop>0.3</hdop><vdop>0.4</vdop><pdop>0.5</pdop><extensions><gpxtpx:TrackPointExtension><gpxtpx:bearing>311.6</gpxtpx:bearing><gpxtpx:speed>15.79</gpxtpx:speed></gpxtpx:TrackPointExtension></extensions></trkpt>
<trkpt lat="18.72183598" lon="73.66972761"><ele>564.882568359375</ele><time>2026-09-12T05:32:57.000Z</time><geoidheight>-71.2</geoidheight><src>gps</src><sat>75</sat><hdop>0.3</hdop><vdop>0.4</vdop><pdop>0.5</pdop><extensions><gpxtpx:TrackPointExtension><gpxtpx:bearing>12.0</gpxtpx:bearing><gpxtpx:speed>12.86</gpxtpx:speed></gpxtpx:TrackPointExtension></extensions></trkpt>
<trkpt lat="18.72626699" lon="73.67151828"><ele>550.0391845703125</ele><time>2026-09-12T05:34:03.000Z</time><geoidheight>-71.2</geoidheight><src>gps</src><sat>72</sat><hdop>0.3</hdop><vdop>0.4</vdop><pdop>0.5</pdop><extensions><gpxtpx:TrackPointExtension><gpxtpx:bearing>69.9</gpxtpx:bearing><gpxtpx:speed>10.49</gpxtpx:speed></gpxtpx:TrackPointExtension></extensions></trkpt>
<trkpt lat="18.72905445" lon="73.67410558"><ele>554.310302734375</ele><time>2026-09-12T05:35:09.000Z</time><geoidheight>-71.2</geoidheight><src>gps</src><sat>50</sat><hdop>0.5</hdop><vdop>0.6</vdop><pdop>0.8</pdop><extensions><gpxtpx:TrackPointExtension><gpxtpx:bearing>19.3</gpxtpx:bearing><gpxtpx:speed>7.56</gpxtpx:speed></gpxtpx:TrackPointExtension></extensions></trkpt>
</trkseg></trk></gpx>