<?xml version="1.0" encoding="UTF-8" ?><gpx version="1.1" creator="GPSLogger 137 - http://gpslogger.mendhak.com/" xmlns:xsi="http://www.w3.org/2001/XMLSchema-instance" xmlns="http://www.topografix.com/GPX/1/1" xmlns:gpxtpx="http://www.garmin.com/xmlschemas/TrackPointExtension/v2" xsi:schemaLocation="http://www.topografix.com/GPX/1/1 http://www.topografix.com/GPX/1/1/gpx.xsd http://www.garmin.com/xmlschemas/TrackPointExtension/v2 https://www8.garmin.com/xmlschemas/TrackPointExtensionv2.xsd "><metadata><time>2026-09-19T00:45:08.000Z</time></metadata><trk><name>20260919</name><trkseg><trkpt lat="18.7275717" lon="73.67417833"><ele>550.3819580078125</ele><time>2026-09-19T00:45:08.000Z</time><geoidheight>-71.2</geoidheight><src>gps</src><sat>54</sat><hdop>0.3</hdop><vdop>0.5</vdop><pdop>0.6</pdop><extensions><gpxtpx:TrackPointExtension><gpxtpx:speed>0.0</gpxtpx:speed></gpxtpx:TrackPointExtension></extensions></trkpt>
<trkpt lat="18.72476659" lon="73.67064305"><ele>550.055419921875</ele><time>2026-09-19T00:46:12.000Z</time><geoidheight>-71.2</geoidheight><src>gps</src><sat>81</sat><hdop>0.3</hdop><vdop>0.4</vdop><pdop>0.5</pdop><extensions><gpxtpx:TrackPointExtension><gpxtpx:bearing>199.3</gpxtpx:bearing><gpxtpx:speed>12.44</gpxtpx:speed></gpxtpx:TrackPointExtension></extensions></trkpt>
<trkpt lat="18.71926345" lon="73.66973877"><ele>572.7357177734375</ele><time>2026-09-19T00:47:19.000Z</time><geoidheight>-71.2</geoidheight><src>gps</src><sat>82</sat><hdop>0.3</hdop><vdop>0.4</vdop><pdop>0.5</pdop><extensions><gpxtpx:TrackPointExtension><gpxtpx:bearing>125.7</gpxtpx:bearing><gpxtpx:speed>5.72</gpxtpx:speed></gpxtpx:TrackPointExtension></extensions></trkpt>
<trkpt lat="18.71872529" lon="73.66980492"><ele>570.669921875</ele><time>2026-09-19T00:48:25.000Z</time><geoidheight>-71.2</geoidheight><src>gps</src><sat>76</sat><hdop>0.3</hdop><vdop>0.4</vdop><pdop>0.5</pdop><extensions><gpxtpx:TrackPointExtension><gpxtpx:speed>0.0</gpxtpx:speed></gpxtpx:TrackPointExtension></extensions></trkpt>
<trkpt lat="18.7196966" lon="73.66922258"><ele>571.8406982421875</ele><time>2026-09-19T00:49:32.000Z</time><geoidheight>-71.2</geoidheight><src>gps</src><sat>83</sat><hdop>0.3</hdop><vdop>0.4</vdop><pdop>0.5</pdop><extensions><gpxtpx:TrackPointExtension><gpxtpx:speed>0.0</gpxtpx:speed></gpxtpx:TrackPointExtension></extensions></trkpt>
<trkpt lat="18.71505087" lon="73.67545364"><ele>572.3118896484375</ele><time>2026-09-19T00:50:37.000Z</time><geoidheight>-71.2</geoidheight><src>gps</src><sat>82</sat><hdop>0.3</hdop><vdop>0.4</vdop><pdop>0.5</pdop><extensions><gpxtpx:TrackPointExtension><gpxtpx:bearing>132.0</gpxtpx:bearing><gpxtpx:speed>12.39</gpxtpx:speed></gpxtpx:TrackPointExtension></extensions></trkpt>
<trkpt lat="18.70769636" lon="73.68303784"><ele>551.662841796875</ele><time>2026-09-19T00:51:44.000Z</time><geoidheight>-71.3</geoidheight><src>gps</src><sat>77</sat><hdop>0.3</hdop><vdop>0.4</vdop><pdop>0.5</pdop><extensions><gpxtpx:TrackPointExtension><gpxtpx:bearing>140.6</gpxtpx:bearing><gpxtpx:speed>19.04</gpxtpx:speed></gpxtpx:TrackPointExtension></extensions></trkpt>
<trkpt lat="18.70083663" lon="73.69031839"><ele>530.78466796875</ele><time>2026-09-19T00:52:49.000Z</time><geoidheight>-71.3</geoidheight><src>gps</src><sat>84</sat><hdop>0.3</hdop><vdop>0.4</vdop><pdop>0.5</pdop><extensions><gpxtpx:TrackPointExtension><gpxtpx:bearing>111.8</gpxtpx:bearing><gpxtpx:speed>14.54</gpxtpx:speed></gpxtpx:TrackPointExtension></extensions></trkpt>
<trkpt lat="18.6990864" lon="73.69657977"><ele>529.1875</ele><time>2026-09-19T00:53:55.000Z</time><geoidheight>-71.3</geoidheight><src>gps</src><sat>83</sat><hdop>0.3</hdop><vdop>0.4</vdop><pdop>0.5</pdop><extensions><gpxtpx:TrackPointExtension><gpxtpx:bearing>104.9</gpxtpx:bearing><gpxtpx:speed>17.07</gpxtpx:speed></gpxtpx:TrackPointExtension></extensions></trkpt>
<trkpt lat="18.69734927" lon="73.70734585"><ele>546.2088623046875</ele><time>2026-09-19T00:55:00.000Z</time><geoidheight>-71.3</geoidheight><src>gps</src><sat>81</sat><hdop>0.3</hdop><vdop>0.4</vdop><pdop>0.5</pdop><extensions><gpxtpx:TrackPointExtension><gpxtpx:bearing>114.4</gpxtpx:bearing><gpxtpx:speed>17.72</gpxtpx:speed></gpxtpx:TrackPointExtension></extensions></trkpt>
<trkpt lat="18.68995992" lon="73.71686988"><ele>542.306884765625</ele><time>2026-09-19T00:56:07.000Z</time><geoidheight>-71.3</geoidheight><src>gps</src><sat>81</sat><hdop>0.3</hdop><vdop>0.4</vdop><pdop>0.5</pdop><extensions><gpxtpx:TrackPointExtension><gpxtpx:bearing>130.6</gpxtpx:bearing><gpxtpx:speed>19.46</gpxtpx:speed></gpxtpx:TrackPointExtension></extensions></trkpt>
<trkpt lat="18.68394336" lon="73.7215971"><ele>550.033935546875</ele><time>2026-09-19T00:57:13.000Z</time><geoidheight>-71.3</geoidheight><src>gps</src><sat>82</sat><hdop>0.3</hdop><vdop>0.4</vdop><pdop>0.5</pdop><extensions><gpxtpx:TrackPointExtension><gpxtpx:bearing>160.1</gpxtpx:bearing><gpxtpx:speed>21.39</gpxtpx:speed></gpxtpx:TrackPointExtension></extensions></trkpt>
<trkpt lat="18.67370718" lon="73.72537141"><ele>523.1707763671875</ele><time>2026-09-19T00:58:18.000Z</time><geoidheight>-71.4</geoidheight><src>gps</src><sat>84</sat><hdop>0.3</hdop><vdop>0.4</vdop><pdop>0.5</pdop><extensions><gpxtpx:TrackPointExtension><gpxtpx:bearing>158.5</gpxtpx:bearing><gpxtpx:speed>11.37</gpxtpx:speed></gpxtpx:TrackPointExtension></extensions></trkpt>
<trkpt lat="18.66901519" lon="73.72724961"><ele>516.864990234375</ele><time>2026-09-19T00:59:24.000Z</time><geoidheight>-71.4</geoidheight><src>gps</src><sat>79</sat><hdop>0.3</hdop><vdop>0.4</vdop><pdop>0.5</pdop><extensions><gpxtpx:TrackPointExtension><gpxtpx:bearing>159.6</gpxtpx:bearing><gpxtpx:speed>8.44</gpxtpx:speed></gpxtpx:TrackPointExtension></extensions></trkpt>
<trkpt lat="18.66163144" lon="73.72999846"><ele>515.849853515625</ele><time>2026-09-19T01:00:30.000Z</time><geoidheight>-71.4</geoidheight><src>gps</src><sat>83</sat><hdop>0.3</hdop><vdop>0.4</vdop><pdop>0.5</pdop><extensions><gpxtpx:TrackPointExtension><gpxtpx:bearing>159.5</gpxtpx:bearing><gpxtpx:speed>19.55</gpxtpx:speed></gpxtpx:TrackPointExtension></extensions></trkpt>
<trkpt lat="18.65038319" lon="73.73453738"><ele>509.10546875</ele><time>2026-09-19T01:01:36.000Z</time><geoidheight>-71.5</geoidheight><src>gps</src><sat>85</sat><hdop>0.3</hdop><vdop>0.4</vdop><pdop>0.5</pdop><extensions><gpxtpx:TrackPointExtension><gpxtpx:bearing>158.4</gpxtpx:bearing><gpxtpx:speed>20.75</gpxtpx:speed></gpxtpx:TrackPointExtension></extensions></trkpt>
<trkpt lat="18.63994566" lon="73.73869555"><ele>499.056884765625</ele><time>2026-09-19T01:02:42.000Z</time><geoidheight>-71.5</geoidheight><src>gps</src><sat>81</sat><hdop>0.3</hdop><vdop>0.4</vdop><pdop>0.5</pdop><extensions><gpxtpx:TrackPointExtension><gpxtpx:bearing>159.4</gpxtpx:bearing><gpxtpx:speed>17.78</gpxtpx:speed></gpxtpx:TrackPointExtension></extensions></trkpt>
<trkpt lat="18.62937658" lon="73.74287279"><ele>501.4149169921875</ele><time>2026-09-19T01:03:48.000Z</time><geoidheight>-71.6</geoidheight><src>gps</src><sat>77</sat><hdop>0.3</hdop><vdop>0.4</vdop><pdop>0.5</pdop><extensions><gpxtpx:TrackPointExtension><gpxtpx:bearing>157.1</gpxtpx:bearing><gpxtpx:speed>18.66</gpxtpx:speed></gpxtpx:TrackPointExtension></extensions></trkpt>
<trkpt lat="18.61836029" lon="73.74732455"><ele>513.1043701171875</ele><time>2026-09-19T01:04:54.000Z</time><geoidheight>-71.6</geoidheight><src>gps</src><sat>83</sat><hdop>0.3</hdop><vdop>0.4</vdop><pdop>0.5</pdop><extensions><gpxtpx:TrackPointExtension><gpxtpx:bearing>158.1</gpxtpx:bearing><gpxtpx:speed>20.42</gpxtpx:speed></gpxtpx:TrackPointExtension></extensions></trkpt>
<trkpt lat="18.60771677" lon="73.75139503"><ele>512.5154418945312</ele><time>2026-09-19T01:06:00.000Z</time><geoidheight>-71.6</geoidheight><src>gps</src><sat>78</sat><hdop>0.3</hdop><vdop>0.4</vdop><pdop>0.5</pdop><extensions><gpxtpx:TrackPointExtension><gpxtpx:bearing>160.4</gpxtpx:bearing><gpxtpx:speed>15.05</gpxtpx:speed></gpxtpx:TrackPointExtension></extensions></trkpt>
<trkpt lat="18.59620477" lon="73.75566863"><ele>498.32305908203125</ele><time>2026-09-19T01:07:07.000Z</time><geoidheight>-71.7</geoidheight><src>gps</src><sat>80</sat><hdop>0.3</hdop><vdop>0.4</vdop><pdop>0.5</pdop><extensions><gpxtpx:TrackPointExtension><gpxtpx:bearing>160.4</gpxtpx:bearing><gpxtpx:speed>20.97</gpxtpx:speed></gpxtpx:TrackPointExtension></extensions></trkpt>
<trkpt lat="18.5867233" lon="73.75923812"><ele>492.12506103515625</ele><time>2026-09-19T01:08:13.000Z</time><geoidheight>-71.7</geoidheight><src>gps</src><sat>77</sat><hdop>0.3</hdop><vdop>0.4</vdop><pdop>0.5</pdop><extensions><gpxtpx:TrackPointExtension><gpxtpx:bearing>159.7</gpxtpx:bearing><gpxtpx:speed>13.02</gpxtpx:speed></gpxtpx:TrackPointExtension></extensions></trkpt>
<trkpt lat="18.57751181" lon="73.76268397"><ele>502.44024658203125</ele><time>2026-09-19T01:09:20.000Z</time><geoidheight>-71.8</geoidheight><src>gps</src><sat>77</sat><hdop>0.3</hdop><vdop>0.4</vdop><pdop>0.5</pdop><extensions><gpxtpx:TrackPointExtension><gpxtpx:bearing>160.3</gpxtpx:bearing><gpxtpx:speed>19.38</gpxtpx:speed></gpxtpx:TrackPointExtension></extensions></trkpt>
<trkpt lat="18.56573577" lon="73.76707622"><ele>512.0065307617188</ele><time>2026-09-19T01:10:27.000Z</time><geoidheight>-71.8</geoidheight><src>gps</src><sat>78</sat><hdop>0.3</hdop><vdop>0.4</vdop><pdop>0.5</pdop><extensions><gpxtpx:TrackPointExtension><gpxtpx:bearing>160.5</gpxtpx:bearing><gpxtpx:speed>21.32</gpxtpx:speed></gpxtpx:TrackPointExtension></extensions></trkpt>
<trkpt lat="18.55406469" lon="73.77125291"><ele>515.9717407226562</ele><time>2026-09-19T01:11:33.000Z</time><geoidheight>-71.9</geoidheight><src>gps</src><sat>73</sat><hdop>0.3</hdop><vdop>0.5</vdop><pdop>0.6</pdop><extensions><gpxtpx:TrackPointExtension><gpxtpx:bearing>162.1</gpxtpx:bearing><gpxtpx:speed>16.93</gpxtpx:speed></gpxtpx:TrackPointExtension></extensions></trkpt>
<trkpt lat="18.54698936" lon="73.77374586"><ele>538.62451171875</ele><time>2026-09-19T01:12:39.000Z</time><geoidheight>-71.9</geoidheight><src>gps</src><sat>76</sat><hdop>0.3</hdop><vdop>0.4</vdop><pdop>0.5</pdop><extensions><gpxtpx:TrackPointExtension><gpxtpx:bearing>164.1</gpxtpx:bearing><gpxtpx:speed>14.65</gpxtpx:speed></gpxtpx:TrackPointExtension></extensions></trkpt>
<trkpt lat="18.53810689" lon="73.781244"><ele>541.2410888671875</ele><time>2026-09-19T01:13:46.000Z</time><geoidheight>-71.9</geoidheight><src>gps</src><sat>77</sat><hdop>0.3</hdop><vdop>0.4</vdop><pdop>0.5</pdop><extensions><gpxtpx:TrackPointExtension><gpxtpx:bearing>176.9</gpxtpx:bearing><gpxtpx:speed>17.52</gpxtpx:speed></gpxtpx:TrackPointExtension></extensions></trkpt>
<trkpt lat="18.52796811" lon="73.7775017"><ele>525.822265625</ele><time>2026-09-19T01:14:52.000Z</time><geoidheight>-72.0</geoidheight><src>gps</src><sat>79</sat><hdop>0.3</hdop><vdop>0.4</vdop><pdop>0.5</pdop><extensions><gpxtpx:TrackPointExtension><gpxtpx:bearing>228.9</gpxtpx:bearing><gpxtpx:speed>16.91</gpxtpx:speed></gpxtpx:TrackPointExtension></extensions></trkpt>
<trkpt lat="18.52275384" lon="73.77036724"><ele>544.3231201171875</ele><time>2026-09-19T01:15:59.000Z</time><geoidheight>-72.0</geoidheight><src>gps</src><sat>80</sat><hdop>0.3</hdop><vdop>0.4</vdop><pdop>0.5</pdop><extensions><gpxtpx:TrackPointExtension><gpxtpx:bearing>211.9</gpxtpx:bearing><gpxtpx:speed>14.07</gpxtpx:speed></gpxtpx:TrackPointExtension></extensions></trkpt>
<trkpt lat="18.51404863" lon="73.76960917"><ele>549.343017578125</ele><time>2026-09-19T01:17:05.000Z</time><geoidheight>-72.0</geoidheight><src>gps</src><sat>80</sat><hdop>0.3</hdop><vdop>0.4</vdop><pdop>0.5</pdop><extensions><gpxtpx:TrackPointExtension><gpxtpx:bearing>156.0</gpxtpx:bearing><gpxtpx:speed>19.2</gpxtpx:speed></gpxtpx:TrackPointExtension></extensions></trkpt>
<trkpt lat="18.50876914" lon="73.77714446"><ele>567.1298828125</ele><time>2026-09-19T01:18:11.000Z</time><geoidheight>-72.0</geoidheight><src>gps</src><sat>80</sat><hdop>0.3</hdop><vdop>0.4</vdop><pdop>0.5</pdop><extensions><gpxtpx:TrackPointExtension><gpxtpx:bearing>106.3</gpxtpx:bearing><gpxtpx:speed>14.27</gpxtpx:speed></gpxtpx:TrackPointExtension></extensions></trkpt>
<trkpt lat="18.50751239" lon="73.78764046"><ele>563.76904296875</ele><time>2026-09-19T01:19:17.000Z</time><geoidheight>-72.0</geoidheight><src>gps</src><sat>78</sat><hdop>0.3</hdop><vdop>0.5</vdop><pdop>0.5</pdop><extensions><gpxtpx:TrackPointExtension><gpxtpx:bearing>85.1</gpxtpx:bearing><gpxtpx:speed>18.1</gpxtpx:speed></gpxtpx:TrackPointExtension></extensions></trkpt>
<trkpt lat="18.5011641" lon="73.79173884"><ele>544.922119140625</ele><time>2026-09-19T01:20:23.000Z</time><geoidheight>-72.1</geoidheight><src>gps</src><sat>79</sat><hdop>0.3</hdop><vdop>0.4</vdop><pdop>0.5</pdop><extensions><gpxtpx:TrackPointExtension><gpxtpx:bearing>217.0</gpxtpx:bearing><gpxtpx:speed>18.06</gpxtpx:speed></gpxtpx:TrackPointExtension></extensions></trkpt>
<trkpt lat="18.49380004" lon="73.78827246"><ele>534.068115234375</ele><time>2026-09-19T01:21:29.000Z</time><geoidheight>-72.1</geoidheight><src>gps</src><sat>80</sat><hdop>0.3</hdop><vdop>0.4</vdop><pdop>0.5</pdop><extensions><gpxtpx:TrackPointExtension><gpxtpx:bearing>153.3</gpxtpx:bearing><gpxtpx:speed>18.52</gpxtpx:speed></gpxtpx:TrackPointExtension></extensions></trkpt>
<trkpt lat="18.48675857" lon="73.79665083"><ele>504.8724365234375</ele><time>2026-09-19T01:22:35.000Z</time><geoidheight>-72.1</geoidheight><src>gps</src><sat>77</sat><hdop>0.3</hdop><vdop>0.5</vdop><pdop>0.5</pdop><extensions><gpxtpx:TrackPointExtension><gpxtpx:bearing>126.0</gpxtpx:bearing><gpxtpx:speed>18.74</gpxtpx:speed></gpxtpx:TrackPointExtension></extensions></trkpt>
<trkpt lat="18.47999099" lon="73.80470501"><ele>499.15936279296875</ele><time>2026-09-19T01:23:40.000Z</time><geoidheight>-72.1</geoidheight><src>gps</src><sat>78</sat><hdop>0.3</hdop><vdop>0.4</vdop><pdop>0.5</pdop><extensions><gpxtpx:TrackPointExtension><gpxtpx:bearing>139.4</gpxtpx:bearing><gpxtpx:speed>14.29</gpxtpx:speed></gpxtpx:TrackPointExtension></extensions></trkpt>
<trkpt lat="18.47356082" lon="73.81036795"><ele>490.0787353515625</ele><time>2026-09-19T01:24:46.000Z</time><geoidheight>-72.2</geoidheight><src>gps</src><sat>75</sat><hdop>0.3</hdop><vdop>0.4</vdop><pdop>0.5</pdop><extensions><gpxtpx:TrackPointExtension><gpxtpx:bearing>139.3</gpxtpx:bearing><gpxtpx:speed>16.18</gpxtpx:speed></gpxtpx:TrackPointExtension></extensions></trkpt>
<trkpt lat="18.46734376" lon="73.81597613"><ele>515.03955078125</ele><time>2026-09-19T01:25:53.000Z</time><geoidheight>-72.2</geoidheight><src>gps</src><sat>80</sat><hdop>0.3</hdop><vdop>0.4</vdop><pdop>0.5</pdop><extensions><gpxtpx:TrackPointExtension><gpxtpx:bearing>139.0</gpxtpx:bearing><gpxtpx:speed>15.26</gpxtpx:speed></gpxtpx:TrackPointExtension></extensions></trkpt>
<trkpt lat="18.46121985" lon="73.82203731"><ele>514.2894897460938</ele><time>2026-09-19T01:27:00.000Z</time><geoidheight>-72.2</geoidheight><src>gps</src><sat>73</sat><hdop>0.3</hdop><vdop>0.5</vdop><pdop>0.6</pdop><extensions><gpxtpx:TrackPointExtension><gpxtpx:bearing>127.9</gpxtpx:bearing><gpxtpx:speed>13.57</gpxtpx:speed></gpxtpx:TrackPointExtension></extensions></trkpt>
</trkseg><trkseg><trkpt lat="18.04415543" lon="74.01602797"><ele>605.2891845703125</ele><time>2026-09-19T03:05:00.000Z</time><geoidheight>-73.4</geoidheight><src>gps</src><sat>77</sat><hdop>0.3</hdop><vdop>0.4</vdop><pdop>0.5</pdop><extensions><gpxtpx:TrackPointExtension><gpxtpx:speed>0.0</gpxtpx:speed></gpxtpx:TrackPointExtension></extensions></trkpt>
<trkpt lat="18.03942912" lon="74.01797256"><ele>611.4019775390625</ele><time>2026-09-19T03:06:06.000Z</time><geoidheight>-73.5</geoidheight><src>gps</src><sat>82</sat><hdop>0.3</hdop><vdop>0.4</vdop><pdop>0.5</pdop><extensions><gpxtpx:TrackPointExtension><gpxtpx:bearing>161.1</gpxtpx:bearing><gpxtpx:speed>18.93</gpxtpx:speed></gpxtpx:TrackPointExtension></extensions></trkpt>
<trkpt lat="18.0337944" lon="74.02051541"><ele>646.953125</ele><time>2026-09-19T03:07:12.000Z</time><geoidheight>-73.5</geoidheight><src>gps</src><sat>82</sat><hdop>0.3</hdop><vdop>0.4</vdop><pdop>0.5</pdop><extensions><gpxtpx:TrackPointExtension><gpxtpx:bearing>117.8</gpxtpx:bearing><gpxtpx:speed>11.93</gpxtpx:speed></gpxtpx:TrackPointExtension></extensions></trkpt>
<trkpt lat="18.02347576" lon="74.02278369"><ele>661.9674072265625</ele><time>2026-09-19T03:08:18.000Z</time><geoidheight>-73.5</geoidheight><src>gps</src><sat>73</sat><hdop>0.3</hdop><vdop>0.4</vdop><pdop>0.6</pdop><extensions><gpxtpx:TrackPointExtension><gpxtpx:bearing>148.8</gpxtpx:bearing><gpxtpx:speed>13.07</gpxtpx:speed></gpxtpx:TrackPointExtension></extensions></trkpt>
<trkpt lat="18.02132279" lon="74.02762687"><ele>702.671142578125</ele><time>2026-09-19T03:09:25.000Z</time><geoidheight>-73.5</geoidheight><src>gps</src><sat>72</sat><hdop>0.3</hdop><vdop>0.4</vdop><pdop>0.6</pdop><extensions><gpxtpx:TrackPointExtension><gpxtpx:bearing>122.4</gpxtpx:bearing><gpxtpx:speed>6.13</gpxtpx:speed></gpxtpx:TrackPointExtension></extensions></trkpt>
<trkpt lat="18.02035805" lon="74.02310789"><ele>730.756591796875</ele><time>2026-09-19T03:10:31.000Z</time><geoidheight>-73.5</geoidheight><src>gps</src><sat>69</sat><hdop>0.4</hdop><vdop>0.5</vdop><pdop>0.6</pdop><extensions><gpxtpx:TrackPointExtension><gpxtpx:bearing>213.7</gpxtpx:bearing><gpxtpx:speed>8.73</gpxtpx:speed></gpxtpx:TrackPointExtension></extensions></trkpt>
<trkpt lat="18.01672017" lon="74.02059561"><ele>761.594482421875</ele><time>2026-09-19T03:11:38.000Z</time><geoidheight>-73.5</geoidheight><src>gps</src><sat>63</sat><hdop>0.4</hdop><vdop>0.5</vdop><pdop>0.7</pdop><extensions><gpxtpx:TrackPointExtension><gpxtpx:bearing>285.0</gpxtpx:bearing><gpxtpx:speed>5.73</gpxtpx:speed></gpxtpx:TrackPointExtension></extensions></trkpt>
<trkpt lat="18.01537412" lon="74.01712617"><ele>790.2294921875</ele><time>2026-09-19T03:12:44.000Z</time><geoidheight>-73.5</geoidheight><src>gps</src><sat>73</sat><hdop>0.3</hdop><vdop>0.5</vdop><pdop>0.6</pdop><extensions><gpxtpx:TrackPointExtension><gpxtpx:bearing>228.0</gpxtpx:bearing><gpxtpx:speed>13.48</gpxtpx:speed></gpxtpx:TrackPointExtension></extensions></trkpt>
<trkpt lat="18.01587292" lon="74.01452048"><ele>814.54345703125</ele><time>2026-09-19T03:13:51.000Z</time><geoidheight>-73.5</geoidheight><src>gps</src><sat>72</sat><hdop>0.3</hdop><vdop>0.5</vdop><pdop>0.6</pdop><extensions><gpxtpx:TrackPointExtension><gpxtpx:bearing>210.7</gpxtpx:bearing><gpxtpx:speed>4.14</gpxtpx:speed></gpxtpx:TrackPointExtension></extensions></trkpt>
<trkpt lat="18.01384489" lon="74.0128332"><ele>827.1990966796875</ele><time>2026-09-19T03:14:58.000Z</time><geoidheight>-73.5</geoidheight><src>gps</src><sat>66</sat><hdop>0.4</hdop><vdop>0.5</vdop><pdop>0.7</pdop><extensions><gpxtpx:TrackPointExtension><gpxtpx:bearing>312.7</gpxtpx:bearing><gpxtpx:speed>9.72</gpxtpx:speed></gpxtpx:TrackPointExtension></extensions></trkpt>
<trkpt lat="18.01276089" lon="74.00865911"><ele>834.876708984375</ele><time>2026-09-19T03:16:04.000Z</time><geoidheight>-73.5</geoidheight><src>gps</src><sat>73</sat><hdop>0.3</hdop><vdop>0.4</vdop><pdop>0.5</pdop><extensions><gpxtpx:TrackPointExtension><gpxtpx:bearing>261.4</gpxtpx:bearing><gpxtpx:speed>8.96</gpxtpx:speed></gpxtpx:TrackPointExtension></extensions></trkpt>
<trkpt lat="18.01207684" lon="74.00312375"><ele>801.884765625</ele><time>2026-09-19T03:17:09.000Z</time><geoidheight>-73.5</geoidheight><src>gps</src><sat>79</sat><hdop>0.3</hdop><vdop>0.4</vdop><pdop>0.5</pdop><extensions><gpxtpx:TrackPointExtension><gpxtpx:bearing>227.4</gpxtpx:bearing><gpxtpx:speed>6.06</gpxtpx:speed></gpxtpx:TrackPointExtension></extensions></trkpt>
<trkpt lat="18.00660896" lon="73.99719416"><ele>769.406005859375</ele><time>2026-09-19T03:18:15.000Z</time><geoidheight>-73.6</geoidheight><src>gps</src><sat>80</sat><hdop>0.3</hdop><vdop>0.4</vdop><pdop>0.5</pdop><extensions><gpxtpx:TrackPointExtension><gpxtpx:bearing>203.2</gpxtpx:bearing><gpxtpx:speed>11.96</gpxtpx:speed></gpxtpx:TrackPointExtension></extensions></trkpt>
<trkpt lat="17.99787314" lon="73.99422932"><ele>750.17724609375</ele><time>2026-09-19T03:19:21.000Z</time><geoidheight>-73.6</geoidheight><src>gps</src><sat>78</sat><hdop>0.3</hdop><vdop>0.4</vdop><pdop>0.5</pdop><extensions><gpxtpx:TrackPointExtension><gpxtpx:bearing>187.3</gpxtpx:bearing><gpxtpx:speed>15.55</gpxtpx:speed></gpxtpx:TrackPointExtension></extensions></trkpt>
<trkpt lat="17.98870964" lon="73.99019126"><ele>730.93994140625</ele><time>2026-09-19T03:20:28.000Z</time><geoidheight>-73.6</geoidheight><src>gps</src><sat>81</sat><hdop>0.3</hdop><vdop>0.4</vdop><pdop>0.5</pdop><extensions><gpxtpx:TrackPointExtension><gpxtpx:bearing>201.7</gpxtpx:bearing><gpxtpx:speed>24.06</gpxtpx:speed></gpxtpx:TrackPointExtension></extensions></trkpt>
<trkpt lat="17.97552375" lon="73.98759873"><ele>708.7550048828125</ele><time>2026-09-19T03:21:34.000Z</time><geoidheight>-73.7</geoidheight><src>gps</src><sat>80</sat><hdop>0.3</hdop><vdop>0.4</vdop><pdop>0.5</pdop><extensions><gpxtpx:TrackPointExtension><gpxtpx:bearing>196.4</gpxtpx:bearing><gpxtpx:speed>20.86</gpxtpx:speed></gpxtpx:TrackPointExtension></extensions></trkpt>
<trkpt lat="17.96717573" lon="73.98560962"><ele>695.510498046875</ele><time>2026-09-19T03:22:41.000Z</time><geoidheight>-73.7</geoidheight><src>gps</src><sat>80</sat><hdop>0.3</hdop><vdop>0.4</vdop><pdop>0.5</pdop><extensions><gpxtpx:TrackPointExtension><gpxtpx:bearing>187.3</gpxtpx:bearing><gpxtpx:speed>10.16</gpxtpx:speed></gpxtpx:TrackPointExtension></extensions></trkpt>
<trkpt lat="17.96548844" lon="73.98312466"><ele>691.81298828125</ele><time>2026-09-19T03:23:47.000Z</time><geoidheight>-73.8</geoidheight><src>gps</src><sat>80</sat><hdop>0.3</hdop><vdop>0.4</vdop><pdop>0.5</pdop><extensions><gpxtpx:TrackPointExtension><gpxtpx:bearing>266.7</gpxtpx:bearing><gpxtpx:speed>5.28</gpxtpx:speed></gpxtpx:TrackPointExtension></extensions></trkpt>
<trkpt lat="17.96313066" lon="73.97556418"><ele>693.960693359375</ele><time>2026-09-19T03:24:52.000Z</time><geoidheight>-73.8</geoidheight><src>gps</src><sat>77</sat><hdop>0.3</hdop><vdop>0.4</vdop><pdop>0.5</pdop><extensions><gpxtpx:TrackPointExtension><gpxtpx:bearing>248.1</gpxtpx:bearing><gpxtpx:speed>19.34</gpxtpx:speed></gpxtpx:TrackPointExtension></extensions></trkpt>
<trkpt lat="17.95969142" lon="73.96573897"><ele>688.9599609375</ele><time>2026-09-19T03:25:58.000Z</time><geoidheight>-73.8</geoidheight><src>gps</src><sat>81</sat><hdop>0.3</hdop><vdop>0.4</vdop><pdop>0.5</pdop><extensions><gpxtpx:TrackPointExtension><gpxtpx:bearing>267.0</gpxtpx:bearing><gpxtpx:speed>12.04</gpxtpx:speed></gpxtpx:TrackPointExtension></extensions></trkpt>
<trkpt lat="17.95512144" lon="73.95614408"><ele>689.856689453125</ele><time>2026-09-19T03:27:04.000Z</time><geoidheight>-73.9</geoidheight><src>gps</src><sat>79</sat><hdop>0.3</hdop><vdop>0.4</vdop><pdop>0.5</pdop><extensions><gpxtpx:TrackPointExtension><gpxtpx:bearing>242.6</gpxtpx:bearing><gpxtpx:speed>16.77</gpxtpx:speed></gpxtpx:TrackPointExtension></extensions></trkpt>
<trkpt lat="17.95123678" lon="73.94509407"><ele>679.0460205078125</ele><time>2026-09-19T03:28:11.000Z</time><geoidheight>-73.9</geoidheight><src>gps</src><sat>76</sat><hdop>0.3</hdop><vdop>0.4</vdop><pdop>0.5</pdop><extensions><gpxtpx:TrackPointExtension><gpxtpx:bearing>254.3</gpxtpx:bearing><gpxtpx:speed>20.23</gpxtpx:speed></gpxtpx:TrackPointExtension></extensions></trkpt>
<trkpt lat="17.94909596" lon="73.93324846"><ele>662.813232421875</ele><time>2026-09-19T03:29:17.000Z</time><geoidheight>-74.0</geoidheight><src>gps</src><sat>80</sat><hdop>0.3</hdop><vdop>0.4</vdop><pdop>0.5</pdop><extensions><gpxtpx:TrackPointExtension><gpxtpx:bearing>265.2</gpxtpx:bearing><gpxtpx:speed>20.57</gpxtpx:speed></gpxtpx:TrackPointExtension></extensions></trkpt>
<trkpt lat="17.94831804" lon="73.92186102"><ele>652.724609375</ele><time>2026-09-19T03:30:24.000Z</time><geoidheight>-74.0</geoidheight><src>gps</src><sat>80</sat><hdop>0.3</hdop><vdop>0.4</vdop><pdop>0.5</pdop><extensions><gpxtpx:TrackPointExtension><gpxtpx:bearing>272.6</gpxtpx:bearing><gpxtpx:speed>14.9</gpxtpx:speed></gpxtpx:TrackPointExtension></extensions></trkpt>
<trkpt lat="17.94800055" lon="73.91309681"><ele>638.861572265625</ele><time>2026-09-19T03:31:29.000Z</time><geoidheight>-74.0</geoidheight><src>gps</src><sat>80</sat><hdop>0.3</hdop><vdop>0.4</vdop><pdop>0.5</pdop><extensions><gpxtpx:TrackPointExtension><gpxtpx:bearing>263.5</gpxtpx:bearing><gpxtpx:speed>14.3</gpxtpx:speed></gpxtpx:TrackPointExtension></extensions></trkpt>
<trkpt lat="17.94271413" lon="73.90450623"><ele>636.47265625</ele><time>2026-09-19T03:32:36.000Z</time><geoidheight>-74.1</geoidheight><src>gps</src><sat>78</sat><hdop>0.3</hdop><vdop>0.4</vdop><pdop>0.5</pdop><extensions><gpxtpx:TrackPointExtension><gpxtpx:bearing>248.2</gpxtpx:bearing><gpxtpx:speed>19.98</gpxtpx:speed></gpxtpx:TrackPointExtension></extensions></trkpt>
<trkpt lat="17.93973426" lon="73.89629948"><ele>635.462646484375</ele><time>2026-09-19T03:33:42.000Z</time><geoidheight>-74.1</geoidheight><src>gps</src><sat>76</sat><hdop>0.3</hdop><vdop>0.4</vdop><pdop>0.5</pdop><extensions><gpxtpx:TrackPointExtension><gpxtpx:bearing>255.4</gpxtpx:bearing><gpxtpx:speed>11.71</gpxtpx:speed></gpxtpx:TrackPointExtension></extensions></trkpt>
<trkpt lat="17.94258201" lon="73.89193039"><ele>635.5943603515625</ele><time>2026-09-19T03:34:48.000Z</time><geoidheight>-74.1</geoidheight><src>gps</src><sat>74</sat><hdop>0.3</hdop><vdop>0.5</vdop><pdop>0.6</pdop><extensions><gpxtpx:TrackPointExtension><gpxtpx:bearing>315.0</gpxtpx:bearing><gpxtpx:speed>9.2</gpxtpx:speed></gpxtpx:TrackPointExtension></extensions></trkpt>
<trkpt lat="17.94645303" lon="73.88838748"><ele>640.189453125</ele><time>2026-09-19T03:35:55.000Z</time><geoidheight>-74.1</geoidheight><src>gps</src><sat>78</sat><hdop>0.3</hdop><vdop>0.4</vdop><pdop>0.5</pdop><extensions><gpxtpx:TrackPointExtension><gpxtpx:bearing>334.8</gpxtpx:bearing><gpxtpx:speed>9.91</gpxtpx:speed></gpxtpx:TrackPointExtension></extensions></trkpt>
<trkpt lat="17.95079046" lon="73.88638388"><ele>634.0181884765625</ele><time>2026-09-19T03:37:02.000Z</time><geoidheight>-74.1</geoidheight><src>gps</src><sat>76</sat><hdop>0.3</hdop><vdop>0.5</vdop><pdop>0.6</pdop><extensions><gpxtpx:TrackPointExtension><gpxtpx:bearing>328.8</gpxtpx:bearing><gpxtpx:speed>7.7</gpxtpx:speed></gpxtpx:TrackPointExtension></extensions></trkpt>
<trkpt lat="17.95185951" lon="73.88226595"><ele>633.24951171875</ele><time>2026-09-19T03:38:09.000Z</time><geoidheight>-74.1</geoidheight><src>gps</src><sat>75</sat><hdop>0.3</hdop><vdop>0.5</vdop><pdop>0.6</pdop><extensions><gpxtpx:TrackPointExtension><gpxtpx:bearing>282.9</gpxtpx:bearing><gpxtpx:speed>5.03</gpxtpx:speed></gpxtpx:TrackPointExtension></extensions></trkpt>
<trkpt lat="17.95446669" lon="73.87694439"><ele>636.130859375</ele><time>2026-09-19T03:39:15.000Z</time><geoidheight>-74.1</geoidheight><src>gps</src><sat>75</sat><hdop>0.3</hdop><vdop>0.5</vdop><pdop>0.6</pdop><extensions><gpxtpx:TrackPointExtension><gpxtpx:bearing>298.4</gpxtpx:bearing><gpxtpx:speed>12.1</gpxtpx:speed></gpxtpx:TrackPointExtension></extensions></trkpt>
<trkpt lat="17.9572871" lon="73.86994427"><ele>635.53173828125</ele><time>2026-09-19T03:40:21.000Z</time><geoidheight>-74.1</geoidheight><src>gps</src><sat>76</sat><hdop>0.3</hdop><vdop>0.4</vdop><pdop>0.5</pdop><extensions><gpxtpx:TrackPointExtension><gpxtpx:bearing>286.1</gpxtpx:bearing><gpxtpx:speed>15.05</gpxtpx:speed></gpxtpx:TrackPointExtension></extensions></trkpt>
<trkpt lat="17.95953605" lon="73.86344647"><ele>645.670166015625</ele><time>2026-09-19T03:41:27.000Z</time><geoidheight>-74.1</geoidheight><src>gps</src><sat>73</sat><hdop>0.3</hdop><vdop>0.5</vdop><pdop>0.6</pdop><extensions><gpxtpx:TrackPointExtension><gpxtpx:bearing>262.7</gpxtpx:bearing><gpxtpx:speed>11.01</gpxtpx:speed></gpxtpx:TrackPointExtension></extensions></trkpt>
<trkpt lat="17.96135817" lon="73.85629338"><ele>649.1636962890625</ele><time>2026-09-19T03:42:33.000Z</time><geoidheight>-74.1</geoidheight><src>gps</src><sat>75</sat><hdop>0.3</hdop><vdop>0.5</vdop><pdop>0.6</pdop><extensions><gpxtpx:TrackPointExtension><gpxtpx:bearing>288.2</gpxtpx:bearing><gpxtpx:speed>5.41</gpxtpx:speed></gpxtpx:TrackPointExtension></extensions></trkpt>
<trkpt lat="17.96247717" lon="73.85008851"><ele>649.7373046875</ele><time>2026-09-19T03:43:39.000Z</time><geoidheight>-74.1</geoidheight><src>gps</src><sat>74</sat><hdop>0.3</hdop><vdop>0.5</vdop><pdop>0.6</pdop><extensions><gpxtpx:TrackPointExtension><gpxtpx:bearing>291.9</gpxtpx:bearing><gpxtpx:speed>14.28</gpxtpx:speed></gpxtpx:TrackPointExtension></extensions></trkpt>
<trkpt lat="17.96610433" lon="73.8421773"><ele>652.2952880859375</ele><time>2026-09-19T03:44:46.000Z</time><geoidheight>-74.1</geoidheight><src>gps</src><sat>76</sat><hdop>0.3</hdop><vdop>0.4</vdop><pdop>0.5</pdop><extensions><gpxtpx:TrackPointExtension><gpxtpx:bearing>280.1</gpxtpx:bearing><gpxtpx:speed>11.32</gpxtpx:speed></gpxtpx:TrackPointExtension></extensions></trkpt>
<trkpt lat="17.96822127" lon="73.83482161"><ele>660.458984375</ele><time>2026-09-19T03:45:53.000Z</time><geoidheight>-74.1</geoidheight><src>gps</src><sat>77</sat><hdop>0.3</hdop><vdop>0.4</vdop><pdop>0.5</pdop><extensions><gpxtpx:TrackPointExtension><gpxtpx:bearing>290.2</gpxtpx:bearing><gpxtpx:speed>15.59</gpxtpx:speed></gpxtpx:TrackPointExtension></extensions></trkpt>
<trkpt lat="17.97043944" lon="73.82855566"><ele>657.05419921875</ele><time>2026-09-19T03:46:59.000Z</time><geoidheight>-74.1</geoidheight><src>gps</src><sat>75</sat><hdop>0.3</hdop><vdop>0.5</vdop><pdop>0.6</pdop><extensions><gpxtpx:TrackPointExtension><gpxtpx:speed>0.0</gpxtpx:speed></gpxtpx:TrackPointExtension></extensions></trkpt>
<trkpt lat="17.97121047" lon="73.82721551"><ele>663.0743408203125</ele><time>2026-09-19T03:49:06.000Z</time><geoidheight>-74.1</geoidheight><src>gps</src><sat>73</sat><hdop>0.3</hdop><vdop>0.5</vdop><pdop>0.6</pdop><extensions><gpxtpx:TrackPointExtension><gpxtpx:bearing>291.6</gpxtpx:bearing><gpxtpx:speed>11.78</gpxtpx:speed></gpxtpx:TrackPointExtension></extensions></trkpt>
<trkpt lat="17.97248904" lon="73.81926962"><ele>683.3106689453125</ele><time>2026-09-19T03:50:12.000Z</time><geoidheight>-74.2</geoidheight><src>gps</src><sat>72</sat><hdop>0.3</hdop><vdop>0.5</vdop><pdop>0.6</pdop><extensions><gpxtpx:TrackPointExtension><gpxtpx:bearing>288.4</gpxtpx:bearing><gpxtpx:speed>12.83</gpxtpx:speed></gpxtpx:TrackPointExtension></extensions></trkpt>
<trkpt lat="17.97172705" lon="73.81274977"><ele>685.564208984375</ele><time>2026-09-19T03:51:19.000Z</time><geoidheight>-74.2</geoidheight><src>gps</src><sat>72</sat><hdop>0.3</hdop><vdop>0.5</vdop><pdop>0.6</pdop><extensions><gpxtpx:TrackPointExtension><gpxtpx:bearing>251.7</gpxtpx:bearing><gpxtpx:speed>12.34</gpxtpx:speed></gpxtpx:TrackPointExtension></extensions></trkpt>
<trkpt lat="17.97085692" lon="73.80856202"><ele>680.3055419921875</ele><time>2026-09-19T03:52:25.000Z</time><geoidheight>-74.2</geoidheight><src>gps</src><sat>74</sat><hdop>0.3</hdop><vdop>0.5</vdop><pdop>0.6</pdop><extensions><gpxtpx:TrackPointExtension><gpxtpx:bearing>335.6</gpxtpx:bearing><gpxtpx:speed>1.31</gpxtpx:speed></gpxtpx:TrackPointExtension></extensions></trkpt>
<trkpt lat="17.97034529" lon="73.80859686"><ele>684.739501953125</ele><time>2026-09-19T03:54:32.000Z</time><geoidheight>-74.2</geoidheight><src>gps</src><sat>72</sat><hdop>0.3</hdop><vdop>0.5</vdop><pdop>0.6</pdop><extensions><gpxtpx:TrackPointExtension><gpxtpx:bearing>257.6</gpxtpx:bearing><gpxtpx:speed>4.43</gpxtpx:speed></gpxtpx:TrackPointExtension></extensions></trkpt>
<trkpt lat="17.96808588" lon="73.80436673"><ele>686.5399169921875</ele><time>2026-09-19T03:55:38.000Z</time><geoidheight>-74.2</geoidheight><src>gps</src><sat>74</sat><hdop>0.3</hdop><vdop>0.5</vdop><pdop>0.6</pdop><extensions><gpxtpx:TrackPointExtension><gpxtpx:bearing>234.4</gpxtpx:bearing><gpxtpx:speed>9.68</gpxtpx:speed></gpxtpx:TrackPointExtension></extensions></trkpt>
<trkpt lat="17.96778734" lon="73.80399625"><ele>685.691162109375</ele><time>2026-09-19T03:56:45.000Z</time><geoidheight>-74.2</geoidheight><src>gps</src><sat>72</sat><hdop>0.3</hdop><vdop>0.5</vdop><pdop>0.6</pdop><extensions><gpxtpx:TrackPointExtension><gpxtpx:bearing>75.9</gpxtpx:bearing><gpxtpx:speed>0.65</gpxtpx:speed></gpxtpx:TrackPointExtension></extensions></trkpt>
<trkpt lat="17.96714623" lon="73.80334671"><ele>684.669189453125</ele><time>2026-09-19T03:57:52.000Z</time><geoidheight>-74.2</geoidheight><src>gps</src><sat>70</sat><hdop>0.3</hdop><vdop>0.5</vdop><pdop>0.6</pdop><extensions><gpxtpx:TrackPointExtension><gpxtpx:speed>0.0</gpxtpx:speed></gpxtpx:TrackPointExtension></extensions></trkpt>
<trkpt lat="17.96725393" lon="73.80317846"><ele>680.33837890625</ele><time>2026-09-19T03:58:57.000Z</time><geoidheight>-74.2</geoidheight><src>gps</src><sat>59</sat><hdop>0.4</hdop><vdop>0.5</vdop><pdop>0.7</pdop><extensions><gpxtpx:TrackPointExtension><gpxtpx:bearing>298.9</gpxtpx:bearing><gpxtpx:speed>0.39</gpxtpx:speed></gpxtpx:TrackPointExtension></extensions></trkpt>
<trkpt lat="17.96731376" lon="73.80297736"><ele>677.724853515625</ele><time>2026-09-19T04:00:03.000Z</time><geoidheight>-74.2</geoidheight><src>gps</src><sat>57</sat><hdop>0.3</hdop><vdop>0.5</vdop><pdop>0.6</pdop><extensions><gpxtpx:TrackPointExtension><gpxtpx:speed>0.0</gpxtpx:speed></gpxtpx:TrackPointExtension></extensions></trkpt>
<trkpt lat="17.96709838" lon="73.80336188"><ele>685.022705078125</ele><time>2026-09-19T04:07:28.000Z</time><geoidheight>-74.2</geoidheight><src>gps</src><sat>64</sat><hdop>0.3</hdop><vdop>0.5</vdop><pdop>0.6</pdop><extensions><gpxtpx:TrackPointExtension><gpxtpx:bearing>26.0</gpxtpx:bearing><gpxtpx:speed>0.82</gpxtpx:speed></gpxtpx:TrackPointExtension></extensions></trkpt>
<trkpt lat="17.9655041" lon="73.80234017"><ele>683.1224365234375</ele><time>2026-09-19T04:14:34.000Z</time><geoidheight>-74.2</geoidheight><src>gps</src><sat>73</sat><hdop>0.3</hdop><vdop>0.5</vdop><pdop>0.6</pdop><extensions><gpxtpx:TrackPointExtension><gpxtpx:bearing>204.7</gpxtpx:bearing><gpxtpx:speed>7.54</gpxtpx:speed></gpxtpx:TrackPointExtension></extensions></trkpt>
<trkpt lat="17.95932279" lon="73.79907954"><ele>687.20263671875</ele><time>2026-09-19T04:15:41.000Z</time><geoidheight>-74.3</geoidheight><src>gps</src><sat>78</sat><hdop>0.3</hdop><vdop>0.5</vdop><pdop>0.6</pdop><extensions><gpxtpx:TrackPointExtension><gpxtpx:bearing>241.7</gpxtpx:bearing><gpxtpx:speed>12.05</gpxtpx:speed></gpxtpx:TrackPointExtension></extensions></trkpt>
<trkpt lat="17.95356651" lon="73.79360352"><ele>689.6611328125</ele><time>2026-09-19T04:16:48.000Z</time><geoidheight>-74.3</geoidheight><src>gps</src><sat>78</sat><hdop>0.3</hdop><vdop>0.5</vdop><pdop>0.6</pdop><extensions><gpxtpx:TrackPointExtension><gpxtpx:bearing>223.2</gpxtpx:bearing><gpxtpx:speed>11.8</gpxtpx:speed></gpxtpx:TrackPointExtension></extensions></trkpt>
<trkpt lat="17.95136595" lon="73.78842895"><ele>691.739013671875</ele><time>2026-09-19T04:17:54.000Z</time><geoidheight>-74.3</geoidheight><src>gps</src><sat>77</sat><hdop>0.3</hdop><vdop>0.5</vdop><pdop>0.5</pdop><extensions><gpxtpx:TrackPointExtension><gpxtpx:bearing>220.6</gpxtpx:bearing><gpxtpx:speed>9.51</gpxtpx:speed></gpxtpx:TrackPointExtension></extensions></trkpt>
<trkpt lat="17.95188211" lon="73.78265442"><ele>687.4722900390625</ele><time>2026-09-19T04:19:01.000Z</time><geoidheight>-74.3</geoidheight><src>gps</src><sat>80</sat><hdop>0.3</hdop><vdop>0.4</vdop><pdop>0.5</pdop><extensions><gpxtpx:TrackPointExtension><gpxtpx:bearing>288.0</gpxtpx:bearing><gpxtpx:speed>9.71</gpxtpx:speed></gpxtpx:TrackPointExtension></extensions></trkpt>
<trkpt lat="17.94834297" lon="73.777436"><ele>689.30029296875</ele><time>2026-09-19T04:20:08.000Z</time><geoidheight>-74.4</geoidheight><src>gps</src><sat>75</sat><hdop>0.3</hdop><vdop>0.5</vdop><pdop>0.6</pdop><extensions><gpxtpx:TrackPointExtension><gpxtpx:bearing>213.7</gpxtpx:bearing><gpxtpx:speed>8.75</gpxtpx:speed></gpxtpx:TrackPointExtension></extensions></trkpt>
<trkpt lat="17.94915565" lon="73.77315019"><ele>685.646728515625</ele><time>2026-09-19T04:21:15.000Z</time><geoidheight>-74.4</geoidheight><src>gps</src><sat>75</sat><hdop>0.3</hdop><vdop>0.5</vdop><pdop>0.5</pdop><extensions><gpxtpx:TrackPointExtension><gpxtpx:bearing>264.8</gpxtpx:bearing><gpxtpx:speed>11.78</gpxtpx:speed></gpxtpx:TrackPointExtension></extensions></trkpt>
<trkpt lat="17.94774771" lon="73.76573899"><ele>687.99609375</ele><time>2026-09-19T04:22:22.000Z</time><geoidheight>-74.4</geoidheight><src>gps</src><sat>74</sat><hdop>0.3</hdop><vdop>0.5</vdop><pdop>0.6</pdop><extensions><gpxtpx:TrackPointExtension><gpxtpx:bearing>248.6</gpxtpx:bearing><gpxtpx:speed>11.34</gpxtpx:speed></gpxtpx:TrackPointExtension></extensions></trkpt>
<trkpt lat="17.94561487" lon="73.75908429"><ele>691.2021484375</ele><time>2026-09-19T04:23:29.000Z</time><geoidheight>-74.4</geoidheight><src>gps</src><sat>71</sat><hdop>0.3</hdop><vdop>0.5</vdop><pdop>0.6</pdop><extensions><gpxtpx:TrackPointExtension><gpxtpx:bearing>247.6</gpxtpx:bearing><gpxtpx:speed>12.75</gpxtpx:speed></gpxtpx:TrackPointExtension></extensions></trkpt>
<trkpt lat="17.94177942" lon="73.75237861"><ele>697.99609375</ele><time>2026-09-19T04:24:35.000Z</time><geoidheight>-74.5</geoidheight><src>gps</src><sat>70</sat><hdop>0.3</hdop><vdop>0.5</vdop><pdop>0.6</pdop><extensions><gpxtpx:TrackPointExtension><gpxtpx:bearing>232.1</gpxtpx:bearing><gpxtpx:speed>9.57</gpxtpx:speed></gpxtpx:TrackPointExtension></extensions></trkpt>
<trkpt lat="17.93863615" lon="73.74869523"><ele>704.26318359375</ele><time>2026-09-19T04:25:42.000Z</time><geoidheight>-74.5</geoidheight><src>gps</src><sat>70</sat><hdop>0.3</hdop><vdop>0.5</vdop><pdop>0.6</pdop><extensions><gpxtpx:TrackPointExtension><gpxtpx:bearing>238.8</gpxtpx:bearing><gpxtpx:speed>11.72</gpxtpx:speed></gpxtpx:TrackPointExtension></extensions></trkpt>
<trkpt lat="17.93644297" lon="73.74404783"><ele>716.077880859375</ele><time>2026-09-19T04:26:49.000Z</time><geoidheight>-74.5</geoidheight><src>gps</src><sat>68</sat><hdop>0.3</hdop><vdop>0.5</vdop><pdop>0.6</pdop><extensions><gpxtpx:TrackPointExtension><gpxtpx:bearing>266.4</gpxtpx:bearing><gpxtpx:speed>8.37</gpxtpx:speed></gpxtpx:TrackPointExtension></extensions></trkpt>
<trkpt lat="17.93894931" lon="73.73993993"><ele>715.923095703125</ele><time>2026-09-19T04:27:54.000Z</time><geoidheight>-74.5</geoidheight><src>gps</src><sat>73</sat><hdop>0.3</hdop><vdop>0.5</vdop><pdop>0.6</pdop><extensions><gpxtpx:TrackPointExtension><gpxtpx:bearing>338.7</gpxtpx:bearing><gpxtpx:speed>13.2</gpxtpx:speed></gpxtpx:TrackPointExtension></extensions></trkpt>
<trkpt lat="17.94424977" lon="73.73546945"><ele>683.431884765625</ele><time>2026-09-19T04:29:00.000Z</time><geoidheight>-74.5</geoidheight><src>gps</src><sat>75</sat><hdop>0.3</hdop><vdop>0.5</vdop><pdop>0.6</pdop><extensions><gpxtpx:TrackPointExtension><gpxtpx:bearing>294.9</gpxtpx:bearing><gpxtpx:speed>13.79</gpxtpx:speed></gpxtpx:TrackPointExtension></extensions></trkpt>
<trkpt lat="17.94141782" lon="73.73185278"><ele>709.5960693359375</ele><time>2026-09-19T04:30:06.000Z</time><geoidheight>-74.5</geoidheight><src>gps</src><sat>68</sat><hdop>0.3</hdop><vdop>0.5</vdop><pdop>0.6</pdop><extensions><gpxtpx:TrackPointExtension><gpxtpx:bearing>218.1</gpxtpx:bearing><gpxtpx:speed>9.75</gpxtpx:speed></gpxtpx:TrackPointExtension></extensions></trkpt>
<trkpt lat="17.94126473" lon="73.72920873"><ele>730.777099609375</ele><time>2026-09-19T04:31:12.000Z</time><geoidheight>-74.5</geoidheight><src>gps</src><sat>72</sat><hdop>0.3</hdop><vdop>0.5</vdop><pdop>0.6</pdop><extensions><gpxtpx:TrackPointExtension><gpxtpx:bearing>214.4</gpxtpx:bearing><gpxtpx:speed>9.4</gpxtpx:speed></gpxtpx:TrackPointExtension></extensions></trkpt>
<trkpt lat="17.940135" lon="73.72540203"><ele>734.48779296875</ele><time>2026-09-19T04:32:19.000Z</time><geoidheight>-74.5</geoidheight><src>gps</src><sat>70</sat><hdop>0.3</hdop><vdop>0.5</vdop><pdop>0.6</pdop><extensions><gpxtpx:TrackPointExtension><gpxtpx:bearing>15.1</gpxtpx:bearing><gpxtpx:speed>8.76</gpxtpx:speed></gpxtpx:TrackPointExtension></extensions></trkpt>
<trkpt lat="17.94355933" lon="73.72292107"><ele>714.740478515625</ele><time>2026-09-19T04:33:26.000Z</time><geoidheight>-74.5</geoidheight><src>gps</src><sat>69</sat><hdop>0.3</hdop><vdop>0.5</vdop><pdop>0.6</pdop><extensions><gpxtpx:TrackPointExtension><gpxtpx:bearing>280.8</gpxtpx:bearing><gpxtpx:speed>11.19</gpxtpx:speed></gpxtpx:TrackPointExtension></extensions></trkpt>
<trkpt lat="17.94756151" lon="73.72274798"><ele>708.6639404296875</ele><time>2026-09-19T04:34:33.000Z</time><geoidheight>-74.5</geoidheight><src>gps</src><sat>77</sat><hdop>0.3</hdop><vdop>0.5</vdop><pdop>0.6</pdop><extensions><gpxtpx:TrackPointExtension><gpxtpx:bearing>7.9</gpxtpx:bearing><gpxtpx:speed>8.98</gpxtpx:speed></gpxtpx:TrackPointExtension></extensions></trkpt>
<trkpt lat="17.95120049" lon="73.72038101"><ele>696.76513671875</ele><time>2026-09-19T04:35:40.000Z</time><geoidheight>-74.5</geoidheight><src>gps</src><sat>77</sat><hdop>0.3</hdop><vdop>0.5</vdop><pdop>0.6</pdop><extensions><gpxtpx:TrackPointExtension><gpxtpx:bearing>276.2</gpxtpx:bearing><gpxtpx:speed>12.32</gpxtpx:speed></gpxtpx:TrackPointExtension></extensions></trkpt>
<trkpt lat="17.95207888" lon="73.71609025"><ele>688.1656494140625</ele><time>2026-09-19T04:36:46.000Z</time><geoidheight>-74.5</geoidheight><src>gps</src><sat>68</sat><hdop>0.3</hdop><vdop>0.5</vdop><pdop>0.6</pdop><extensions><gpxtpx:TrackPointExtension><gpxtpx:speed>0.0</gpxtpx:speed></gpxtpx:TrackPointExtension></extensions></trkpt>
<trkpt lat="17.95273176" lon="73.71636585"><ele>684.437255859375</ele><time>2026-09-19T04:39:54.000Z</time><geoidheight>-74.5</geoidheight><src>gps</src><sat>80</sat><hdop>0.3</hdop><vdop>0.4</vdop><pdop>0.5</pdop><extensions><gpxtpx:TrackPointExtension><gpxtpx:bearing>31.3</gpxtpx:bearing><gpxtpx:speed>7.45</gpxtpx:speed></gpxtpx:TrackPointExtension></extensions></trkpt>
<trkpt lat="17.95481657" lon="73.71994431"><ele>698.6654052734375</ele><time>2026-09-19T04:41:00.000Z</time><geoidheight>-74.5</geoidheight><src>gps</src><sat>83</sat><hdop>0.3</hdop><vdop>0.4</vdop><pdop>0.5</pdop><extensions><gpxtpx:TrackPointExtension><gpxtpx:bearing>98.1</gpxtpx:bearing><gpxtpx:speed>14.24</gpxtpx:speed></gpxtpx:TrackPointExtension></extensions></trkpt>
<trkpt lat="17.95405723" lon="73.72511963"><ele>682.67333984375</ele><time>2026-09-19T04:42:06.000Z</time><geoidheight>-74.5</geoidheight><src>gps</src><sat>82</sat><hdop>0.3</hdop><vdop>0.4</vdop><pdop>0.5</pdop><extensions><gpxtpx:TrackPointExtension><gpxtpx:bearing>121.9</gpxtpx:bearing><gpxtpx:speed>4.82</gpxtpx:speed></gpxtpx:TrackPointExtension></extensions></trkpt>
<trkpt lat="17.95227924" lon="73.72956828"><ele>693.271484375</ele><time>2026-09-19T04:43:12.000Z</time><geoidheight>-74.5</geoidheight><src>gps</src><sat>79</sat><hdop>0.3</hdop><vdop>0.5</vdop><pdop>0.5</pdop><extensions><gpxtpx:TrackPointExtension><gpxtpx:bearing>111.3</gpxtpx:bearing><gpxtpx:speed>8.64</gpxtpx:speed></gpxtpx:TrackPointExtension></extensions></trkpt>
<trkpt lat="17.95097625" lon="73.73434875"><ele>680.934814453125</ele><time>2026-09-19T04:44:18.000Z</time><geoidheight>-74.5</geoidheight><src>gps</src><sat>76</sat><hdop>0.3</hdop><vdop>0.5</vdop><pdop>0.6</pdop><extensions><gpxtpx:TrackPointExtension><gpxtpx:bearing>125.4</gpxtpx:bearing><gpxtpx:speed>7.37</gpxtpx:speed></gpxtpx:TrackPointExtension></extensions></trkpt>
<trkpt lat="17.94984017" lon="73.73977388"><ele>682.174072265625</ele><time>2026-09-19T04:45:24.000Z</time><geoidheight>-74.5</geoidheight><src>gps</src><sat>78</sat><hdop>0.3</hdop><vdop>0.5</vdop><pdop>0.5</pdop><extensions><gpxtpx:TrackPointExtension><gpxtpx:bearing>91.2</gpxtpx:bearing><gpxtpx:speed>10.96</gpxtpx:speed></gpxtpx:TrackPointExtension></extensions></trkpt>
<trkpt lat="17.94933979" lon="73.74082255"><ele>681.576904296875</ele><time>2026-09-19T04:46:29.000Z</time><geoidheight>-74.5</geoidheight><src>gps</src><sat>81</sat><hdop>0.3</hdop><vdop>0.5</vdop><pdop>0.5</pdop><extensions><gpxtpx:TrackPointExtension><gpxtpx:bearing>269.5</gpxtpx:bearing><gpxtpx:speed>2.55</gpxtpx:speed></gpxtpx:TrackPointExtension></extensions></trkpt>
<trkpt lat="17.94937595" lon="73.74114"><ele>680.101806640625</ele><time>2026-09-19T04:47:35.000Z</time><geoidheight>-74.5</geoidheight><src>gps</src><sat>81</sat><hdop>0.3</hdop><vdop>0.5</vdop><pdop>0.5</pdop><extensions><gpxtpx:TrackPointExtension><gpxtpx:speed>0.0</gpxtpx:speed></gpxtpx:TrackPointExtension></extensions></trkpt>
<trkpt lat="17.94957603" lon="73.74600121"><ele>693.5445556640625</ele><time>2026-09-19T04:48:41.000Z</time><geoidheight>-74.5</geoidheight><src>gps</src><sat>81</sat><hdop>0.3</hdop><vdop>0.5</vdop><pdop>0.5</pdop><extensions><gpxtpx:TrackPointExtension><gpxtpx:bearing>82.6</gpxtpx:bearing><gpxtpx:speed>10.46</gpxtpx:speed></gpxtpx:TrackPointExtension></extensions></trkpt>
<trkpt lat="17.95283188" lon="73.7513757"><ele>685.138916015625</ele><time>2026-09-19T04:49:47.000Z</time><geoidheight>-74.4</geoidheight><src>gps</src><sat>78</sat><hdop>0.3</hdop><vdop>0.5</vdop><pdop>0.6</pdop><extensions><gpxtpx:TrackPointExtension><gpxtpx:bearing>74.4</gpxtpx:bearing><gpxtpx:speed>12.41</gpxtpx:speed></gpxtpx:TrackPointExtension></extensions></trkpt>
<trkpt lat="17.95529905" lon="73.7565917"><ele>687.27099609375</ele><time>2026-09-19T04:50:52.000Z</time><geoidheight>-74.4</geoidheight><src>gps</src><sat>80</sat><hdop>0.3</hdop><vdop>0.5</vdop><pdop>0.6</pdop><extensions><gpxtpx:TrackPointExtension><gpxtpx:bearing>52.5</gpxtpx:bearing><gpxtpx:speed>6.14</gpxtpx:speed></gpxtpx:TrackPointExtension></extensions></trkpt>
<trkpt lat="17.95797135" lon="73.75948997"><ele>706.24755859375</ele><time>2026-09-19T04:51:59.000Z</time><geoidheight>-74.4</geoidheight><src>gps</src><sat>78</sat><hdop>0.3</hdop><vdop>0.5</vdop><pdop>0.6</pdop><extensions><gpxtpx:TrackPointExtension><gpxtpx:bearing>45.6</gpxtpx:bearing><gpxtpx:speed>6.72</gpxtpx:speed></gpxtpx:TrackPointExtension></extensions></trkpt>
<trkpt lat="17.96129288" lon="73.76307917"><ele>705.390869140625</ele><time>2026-09-19T04:53:06.000Z</time><geoidheight>-74.4</geoidheight><src>gps</src><sat>81</sat><hdop>0.3</hdop><vdop>0.5</vdop><pdop>0.6</pdop><extensions><gpxtpx:TrackPointExtension><gpxtpx:bearing>48.3</gpxtpx:bearing><gpxtpx:speed>9.99</gpxtpx:speed></gpxtpx:TrackPointExtension></extensions></trkpt>
<trkpt lat="17.96342227" lon="73.76816607"><ele>699.580322265625</ele><time>2026-09-19T04:54:12.000Z</time><geoidheight>-74.3</geoidheight><src>gps</src><sat>81</sat><hdop>0.3</hdop><vdop>0.5</vdop><pdop>0.6</pdop><extensions><gpxtpx:TrackPointExtension><gpxtpx:bearing>73.0</gpxtpx:bearing><gpxtpx:speed>10.42</gpxtpx:speed></gpxtpx:TrackPointExtension></extensions></trkpt>
<trkpt lat="17.96456234" lon="73.77236426"><ele>691.812744140625</ele><time>2026-09-19T04:55:19.000Z</time><geoidheight>-74.3</geoidheight><src>gps</src><sat>83</sat><hdop>0.3</hdop><vdop>0.5</vdop><pdop>0.6</pdop><extensions><gpxtpx:TrackPointExtension><gpxtpx:bearing>78.5</gpxtpx:bearing><gpxtpx:speed>6.46</gpxtpx:speed></gpxtpx:TrackPointExtension></extensions></trkpt>
<trkpt lat="17.96487284" lon="73.77532547"><ele>683.830078125</ele><time>2026-09-19T04:56:25.000Z</time><geoidheight>-74.3</geoidheight><src>gps</src><sat>83</sat><hdop>0.3</hdop><vdop>0.5</vdop><pdop>0.6</pdop><extensions><gpxtpx:TrackPointExtension><gpxtpx:bearing>43.9</gpxtpx:bearing><gpxtpx:speed>8.86</gpxtpx:speed></gpxtpx:TrackPointExtension></extensions></trkpt>
<trkpt lat="17.96527431" lon="73.77630419"><ele>680.662841796875</ele><time>2026-09-19T04:57:31.000Z</time><geoidheight>-74.3</geoidheight><src>gps</src><sat>83</sat><hdop>0.3</hdop><vdop>0.5</vdop><pdop>0.6</pdop><extensions><gpxtpx:TrackPointExtension><gpxtpx:bearing>39.3</gpxtpx:bearing><gpxtpx:speed>0.33</gpxtpx:speed></gpxtpx:TrackPointExtension></extensions></trkpt>
<trkpt lat="17.96546" lon="73.77613536"><ele>680.7637939453125</ele><time>2026-09-19T05:01:55.000Z</time><geoidheight>-74.3</geoidheight><src>gps</src><sat>68</sat><hdop>0.3</hdop><vdop>0.5</vdop><pdop>0.6</pdop><extensions><gpxtpx:TrackPointExtension><gpxtpx:bearing>166.8</gpxtpx:bearing><gpxtpx:speed>0.47</gpxtpx:speed></gpxtpx:TrackPointExtension></extensions></trkpt>
<trkpt lat="17.96526186" lon="73.77621448"><ele>680.851318359375</ele><time>2026-09-19T05:02:48.000Z</time><geoidheight>-74.3</geoidheight><src>gps</src><sat>83</sat><hdop>0.3</hdop><vdop>0.5</vdop><pdop>0.6</pdop><extensions><gpxtpx:TrackPointExtension><gpxtpx:bearing>164.0</gpxtpx:bearing><gpxtpx:speed>0.51</gpxtpx:speed></gpxtpx:TrackPointExtension></extensions></trkpt>
<trkpt lat="17.96526929" lon="73.77636206"><ele>679.303466796875</ele><time>2026-09-19T05:09:00.000Z</time><geoidheight>-74.3</geoidheight><src>gps</src><sat>80</sat><hdop>0.3</hdop><vdop>0.5</vdop><pdop>0.6</pdop><extensions><gpxtpx:TrackPointExtension><gpxtpx:bearing>137.0</gpxtpx:bearing><gpxtpx:speed>0.44</gpxtpx:speed></gpxtpx:TrackPointExtension></extensions></trkpt>
<trkpt lat="17.96503489" lon="73.77621871"><ele>677.3271484375</ele><time>2026-09-19T05:13:09.000Z</time><geoidheight>-74.3</geoidheight><src>gps</src><sat>61</sat><hdop>0.3</hdop><vdop>0.5</vdop><pdop>0.6</pdop><extensions><gpxtpx:TrackPointExtension><gpxtpx:speed>0.0</gpxtpx:speed></gpxtpx:TrackPointExtension></extensions></trkpt>
<trkpt lat="17.96513497" lon="73.77603799"><ele>677.8240966796875</ele><time>2026-09-19T05:14:16.000Z</time><geoidheight>-74.3</geoidheight><src>gps</src><sat>74</sat><hdop>0.3</hdop><vdop>0.5</vdop><pdop>0.6</pdop><extensions><gpxtpx:TrackPointExtension><gpxtpx:bearing>305.4</gpxtpx:bearing><gpxtpx:speed>0.54</gpxtpx:speed></gpxtpx:TrackPointExtension></extensions></trkpt>
<trkpt lat="17.96524675" lon="73.77589783"><ele>676.553466796875</ele><time>2026-09-19T05:15:22.000Z</time><geoidheight>-74.3</geoidheight><src>gps</src><sat>80</sat><hdop>0.3</hdop><vdop>0.5</vdop><pdop>0.6</pdop><extensions><gpxtpx:TrackPointExtension><gpxtpx:bearing>275.2</gpxtpx:bearing><gpxtpx:speed>0.33</gpxtpx:speed></gpxtpx:TrackPointExtension></extensions></trkpt>
<trkpt lat="17.9651075" lon="73.77606064"><ele>677.982177734375</ele><time>2026-09-19T05:16:29.000Z</time><geoidheight>-74.3</geoidheight><src>gps</src><sat>81</sat><hdop>0.3</hdop><vdop>0.5</vdop><pdop>0.6</pdop><extensions><gpxtpx:TrackPointExtension><gpxtpx:bearing>132.1</gpxtpx:bearing><gpxtpx:speed>1.07</gpxtpx:speed></gpxtpx:TrackPointExtension></extensions></trkpt>
<trkpt lat="17.96522292" lon="73.77628015"><ele>678.32763671875</ele><time>2026-09-19T05:17:34.000Z</time><geoidheight>-74.3</geoidheight><src>gps</src><sat>78</sat><hdop>0.3</hdop><vdop>0.5</vdop><pdop>0.6</pdop><extensions><gpxtpx:TrackPointExtension><gpxtpx:speed>0.0</gpxtpx:speed></gpxtpx:TrackPointExtension></extensions></trkpt>
</trkseg><trkseg><trkpt lat="17.96526457" lon="73.77630788"><ele>681.9052734375</ele><time>2026-09-19T05:38:21.000Z</time><src>gps</src><sat>81</sat><extensions><gpxtpx:TrackPointExtension><gpxtpx:speed>0.0</gpxtpx:speed></gpxtpx:TrackPointExtension></extensions></trkpt>
<trkpt lat="17.96489495" lon="73.77401321"><ele>685.045654296875</ele><time>2026-09-19T05:39:27.000Z</time><geoidheight>-74.3</geoidheight><src>gps</src><sat>75</sat><hdop>0.3</hdop><vdop>0.5</vdop><pdop>0.6</pdop><extensions><gpxtpx:TrackPointExtension><gpxtpx:bearing>262.6</gpxtpx:bearing><gpxtpx:speed>8.69</gpxtpx:speed></gpxtpx:TrackPointExtension></extensions></trkpt>
<trkpt lat="17.96369792" lon="73.76945416"><ele>697.697998046875</ele><time>2026-09-19T05:40:34.000Z</time><geoidheight>-74.3</geoidheight><src>gps</src><sat>84</sat><hdop>0.3</hdop><vdop>0.4</vdop><pdop>0.5</pdop><extensions><gpxtpx:TrackPointExtension><gpxtpx:bearing>300.7</gpxtpx:bearing><gpxtpx:speed>10.17</gpxtpx:speed></gpxtpx:TrackPointExtension></extensions></trkpt>
<trkpt lat="17.9636238" lon="73.76875951"><ele>698.895263671875</ele><time>2026-09-19T05:41:40.000Z</time><geoidheight>-74.3</geoidheight><src>gps</src><sat>81</sat><hdop>0.3</hdop><vdop>0.4</vdop><pdop>0.5</pdop><extensions><gpxtpx:TrackPointExtension><gpxtpx:speed>0.0</gpxtpx:speed></gpxtpx:TrackPointExtension></extensions></trkpt>
<trkpt lat="17.96298219" lon="73.76727658"><ele>699.436767578125</ele><time>2026-09-19T05:45:51.000Z</time><geoidheight>-74.3</geoidheight><src>gps</src><sat>80</sat><hdop>0.3</hdop><vdop>0.4</vdop><pdop>0.5</pdop><extensions><gpxtpx:TrackPointExtension><gpxtpx:bearing>230.8</gpxtpx:bearing><gpxtpx:speed>8.34</gpxtpx:speed></gpxtpx:TrackPointExtension></extensions></trkpt>
<trkpt lat="17.96099824" lon="73.76275259"><ele>706.737060546875</ele><time>2026-09-19T05:46:56.000Z</time><geoidheight>-74.4</geoidheight><src>gps</src><sat>79</sat><hdop>0.3</hdop><vdop>0.4</vdop><pdop>0.5</pdop><extensions><gpxtpx:TrackPointExtension><gpxtpx:bearing>231.7</gpxtpx:bearing><gpxtpx:speed>8.11</gpxtpx:speed></gpxtpx:TrackPointExtension></extensions></trkpt>
<trkpt lat="17.9583757" lon="73.7597232"><ele>706.704345703125</ele><time>2026-09-19T05:48:02.000Z</time><geoidheight>-74.4</geoidheight><src>gps</src><sat>80</sat><hdop>0.3</hdop><vdop>0.4</vdop><pdop>0.5</pdop><extensions><gpxtpx:TrackPointExtension><gpxtpx:bearing>197.5</gpxtpx:bearing><gpxtpx:speed>6.77</gpxtpx:speed></gpxtpx:TrackPointExtension></extensions></trkpt>
<trkpt lat="17.95694655" lon="73.7570314"><ele>699.525390625</ele><time>2026-09-19T05:49:08.000Z</time><geoidheight>-74.4</geoidheight><src>gps</src><sat>78</sat><hdop>0.3</hdop><vdop>0.4</vdop><pdop>0.5</pdop><extensions><gpxtpx:TrackPointExtension><gpxtpx:bearing>170.6</gpxtpx:bearing><gpxtpx:speed>8.6</gpxtpx:speed></gpxtpx:TrackPointExtension></extensions></trkpt>
<trkpt lat="17.95329052" lon="73.75404277"><ele>688.92919921875</ele><time>2026-09-19T05:50:14.000Z</time><geoidheight>-74.4</geoidheight><src>gps</src><sat>78</sat><hdop>0.3</hdop><vdop>0.4</vdop><pdop>0.5</pdop><extensions><gpxtpx:TrackPointExtension><gpxtpx:bearing>244.0</gpxtpx:bearing><gpxtpx:speed>12.1</gpxtpx:speed></gpxtpx:TrackPointExtension></extensions></trkpt>
<trkpt lat="17.95055661" lon="73.74821326"><ele>689.2576904296875</ele><time>2026-09-19T05:51:21.000Z</time><geoidheight>-74.4</geoidheight><src>gps</src><sat>78</sat><hdop>0.3</hdop><vdop>0.4</vdop><pdop>0.5</pdop><extensions><gpxtpx:TrackPointExtension><gpxtpx:bearing>242.3</gpxtpx:bearing><gpxtpx:speed>12.32</gpxtpx:speed></gpxtpx:TrackPointExtension></extensions></trkpt>
<trkpt lat="17.94938774" lon="73.74058062"><ele>679.9656982421875</ele><time>2026-09-19T05:52:27.000Z</time><geoidheight>-74.5</geoidheight><src>gps</src><sat>73</sat><hdop>0.3</hdop><vdop>0.5</vdop><pdop>0.6</pdop><extensions><gpxtpx:TrackPointExtension><gpxtpx:bearing>285.7</gpxtpx:bearing><gpxtpx:speed>10.64</gpxtpx:speed></gpxtpx:TrackPointExtension></extensions></trkpt>
<trkpt lat="17.95053873" lon="73.73552578"><ele>679.91650390625</ele><time>2026-09-19T05:53:34.000Z</time><geoidheight>-74.5</geoidheight><src>gps</src><sat>71</sat><hdop>0.3</hdop><vdop>0.5</vdop><pdop>0.6</pdop><extensions><gpxtpx:TrackPointExtension><gpxtpx:bearing>292.3</gpxtpx:bearing><gpxtpx:speed>11.23</gpxtpx:speed></gpxtpx:TrackPointExtension></extensions></trkpt>
<trkpt lat="17.95223174" lon="73.72966241"><ele>691.264404296875</ele><time>2026-09-19T05:54:40.000Z</time><geoidheight>-74.5</geoidheight><src>gps</src><sat>70</sat><hdop>0.3</hdop><vdop>0.5</vdop><pdop>0.6</pdop><extensions><gpxtpx:TrackPointExtension><gpxtpx:bearing>280.2</gpxtpx:bearing><gpxtpx:speed>10.79</gpxtpx:speed></gpxtpx:TrackPointExtension></extensions></trkpt>
<trkpt lat="17.95361235" lon="73.7245875"><ele>678.901123046875</ele><time>2026-09-19T05:55:47.000Z</time><geoidheight>-74.5</geoidheight><src>gps</src><sat>70</sat><hdop>0.3</hdop><vdop>0.5</vdop><pdop>0.6</pdop><extensions><gpxtpx:TrackPointExtension><gpxtpx:bearing>212.2</gpxtpx:bearing><gpxtpx:speed>11.51</gpxtpx:speed></gpxtpx:TrackPointExtension></extensions></trkpt>
<trkpt lat="17.95509957" lon="73.71847818"><ele>695.339599609375</ele><time>2026-09-19T05:56:52.000Z</time><geoidheight>-74.5</geoidheight><src>gps</src><sat>69</sat><hdop>0.3</hdop><vdop>0.5</vdop><pdop>0.6</pdop><extensions><gpxtpx:TrackPointExtension><gpxtpx:bearing>270.9</gpxtpx:bearing><gpxtpx:speed>14.88</gpxtpx:speed></gpxtpx:TrackPointExtension></extensions></trkpt>
<trkpt lat="17.95143376" lon="73.71741505"><ele>688.7952880859375</ele><time>2026-09-19T05:57:58.000Z</time><geoidheight>-74.5</geoidheight><src>gps</src><sat>62</sat><hdop>0.3</hdop><vdop>0.5</vdop><pdop>0.6</pdop><extensions><gpxtpx:TrackPointExtension><gpxtpx:bearing>83.4</gpxtpx:bearing><gpxtpx:speed>10.77</gpxtpx:speed></gpxtpx:TrackPointExtension></extensions></trkpt>
<trkpt lat="17.9497301" lon="73.72253018"><ele>693.4718017578125</ele><time>2026-09-19T05:59:04.000Z</time><geoidheight>-74.5</geoidheight><src>gps</src><sat>68</sat><hdop>0.3</hdop><vdop>0.5</vdop><pdop>0.6</pdop><extensions><gpxtpx:TrackPointExtension><gpxtpx:bearing>175.9</gpxtpx:bearing><gpxtpx:speed>8.58</gpxtpx:speed></gpxtpx:TrackPointExtension></extensions></trkpt>
<trkpt lat="17.94439741" lon="73.72180724"><ele>716.95654296875</ele><time>2026-09-19T06:00:10.000Z</time><geoidheight>-74.5</geoidheight><src>gps</src><sat>65</sat><hdop>0.3</hdop><vdop>0.5</vdop><pdop>0.6</pdop><extensions><gpxtpx:TrackPointExtension><gpxtpx:bearing>159.3</gpxtpx:bearing><gpxtpx:speed>8.83</gpxtpx:speed></gpxtpx:TrackPointExtension></extensions></trkpt>
<trkpt lat="17.94114257" lon="73.72518318"><ele>744.686767578125</ele><time>2026-09-19T06:01:16.000Z</time><geoidheight>-74.5</geoidheight><src>gps</src><sat>67</sat><hdop>0.3</hdop><vdop>0.5</vdop><pdop>0.6</pdop><extensions><gpxtpx:TrackPointExtension><gpxtpx:bearing>153.6</gpxtpx:bearing><gpxtpx:speed>12.2</gpxtpx:speed></gpxtpx:TrackPointExtension></extensions></trkpt>
<trkpt lat="17.94129152" lon="73.72918221"><ele>727.322265625</ele><time>2026-09-19T06:02:22.000Z</time><geoidheight>-74.5</geoidheight><src>gps</src><sat>70</sat><hdop>0.3</hdop><vdop>0.5</vdop><pdop>0.6</pdop><extensions><gpxtpx:TrackPointExtension><gpxtpx:bearing>36.9</gpxtpx:bearing><gpxtpx:speed>14.14</gpxtpx:speed></gpxtpx:TrackPointExtension></extensions></trkpt>
<trkpt lat="17.94222757" lon="73.73245262"><ele>701.86181640625</ele><time>2026-09-19T06:03:29.000Z</time><geoidheight>-74.5</geoidheight><src>gps</src><sat>71</sat><hdop>0.3</hdop><vdop>0.5</vdop><pdop>0.6</pdop><extensions><gpxtpx:TrackPointExtension><gpxtpx:bearing>83.7</gpxtpx:bearing><gpxtpx:speed>6.93</gpxtpx:speed></gpxtpx:TrackPointExtension></extensions></trkpt>
<trkpt lat="17.94352868" lon="73.73766711"><ele>690.219970703125</ele><time>2026-09-19T06:04:35.000Z</time><geoidheight>-74.5</geoidheight><src>gps</src><sat>71</sat><hdop>0.3</hdop><vdop>0.5</vdop><pdop>0.6</pdop><extensions><gpxtpx:TrackPointExtension><gpxtpx:bearing>109.2</gpxtpx:bearing><gpxtpx:speed>9.4</gpxtpx:speed></gpxtpx:TrackPointExtension></extensions></trkpt>
<trkpt lat="17.93731312" lon="73.74108354"><ele>717.82373046875</ele><time>2026-09-19T06:05:41.000Z</time><geoidheight>-74.5</geoidheight><src>gps</src><sat>70</sat><hdop>0.3</hdop><vdop>0.5</vdop><pdop>0.6</pdop><extensions><gpxtpx:TrackPointExtension><gpxtpx:bearing>115.1</gpxtpx:bearing><gpxtpx:speed>8.09</gpxtpx:speed></gpxtpx:TrackPointExtension></extensions></trkpt>
<trkpt lat="17.93798825" lon="73.74607094"><ele>711.3004150390625</ele><time>2026-09-19T06:06:47.000Z</time><geoidheight>-74.5</geoidheight><src>gps</src><sat>69</sat><hdop>0.3</hdop><vdop>0.5</vdop><pdop>0.6</pdop><extensions><gpxtpx:TrackPointExtension><gpxtpx:bearing>24.6</gpxtpx:bearing><gpxtpx:speed>7.31</gpxtpx:speed></gpxtpx:TrackPointExtension></extensions></trkpt>
<trkpt lat="17.94021764" lon="73.75106395"><ele>700.5428466796875</ele><time>2026-09-19T06:07:54.000Z</time><geoidheight>-74.5</geoidheight><src>gps</src><sat>72</sat><hdop>0.3</hdop><vdop>0.5</vdop><pdop>0.5</pdop><extensions><gpxtpx:TrackPointExtension><gpxtpx:bearing>37.7</gpxtpx:bearing><gpxtpx:speed>7.04</gpxtpx:speed></gpxtpx:TrackPointExtension></extensions></trkpt>
<trkpt lat="17.94448315" lon="73.75716919"><ele>691.310546875</ele><time>2026-09-19T06:09:00.000Z</time><geoidheight>-74.4</geoidheight><src>gps</src><sat>70</sat><hdop>0.3</hdop><vdop>0.5</vdop><pdop>0.6</pdop><extensions><gpxtpx:TrackPointExtension><gpxtpx:bearing>54.4</gpxtpx:bearing><gpxtpx:speed>14.26</gpxtpx:speed></gpxtpx:TrackPointExtension></extensions></trkpt>
<trkpt lat="17.94903992" lon="73.77179117"><ele>687.33984375</ele><time>2026-09-19T06:11:08.000Z</time><geoidheight>-74.4</geoidheight><src>gps</src><sat>69</sat><hdop>0.3</hdop><vdop>0.5</vdop><pdop>0.6</pdop><extensions><gpxtpx:TrackPointExtension><gpxtpx:bearing>82.5</gpxtpx:bearing><gpxtpx:speed>16.12</gpxtpx:speed></gpxtpx:TrackPointExtension></extensions></trkpt>
<trkpt lat="17.94858207" lon="73.77750976"><ele>688.22509765625</ele><time>2026-09-19T06:12:15.000Z</time><geoidheight>-74.4</geoidheight><src>gps</src><sat>73</sat><hdop>0.3</hdop><vdop>0.5</vdop><pdop>0.6</pdop><extensions><gpxtpx:TrackPointExtension><gpxtpx:bearing>13.3</gpxtpx:bearing><gpxtpx:speed>9.27</gpxtpx:speed></gpxtpx:TrackPointExtension></extensions></trkpt>
<trkpt lat="17.95102667" lon="73.78347128"><ele>684.753662109375</ele><time>2026-09-19T06:13:22.000Z</time><geoidheight>-74.3</geoidheight><src>gps</src><sat>76</sat><hdop>0.3</hdop><vdop>0.5</vdop><pdop>0.5</pdop><extensions><gpxtpx:TrackPointExtension><gpxtpx:bearing>143.3</gpxtpx:bearing><gpxtpx:speed>12.8</gpxtpx:speed></gpxtpx:TrackPointExtension></extensions></trkpt>
<trkpt lat="17.9523619" lon="73.78912993"><ele>683.502197265625</ele><time>2026-09-19T06:14:27.000Z</time><geoidheight>-74.3</geoidheight><src>gps</src><sat>68</sat><hdop>0.3</hdop><vdop>0.5</vdop><pdop>0.6</pdop><extensions><gpxtpx:TrackPointExtension><gpxtpx:bearing>28.8</gpxtpx:bearing><gpxtpx:speed>10.72</gpxtpx:speed></gpxtpx:TrackPointExtension></extensions></trkpt>
<trkpt lat="17.95499367" lon="73.79488296"><ele>688.24462890625</ele><time>2026-09-19T06:15:33.000Z</time><geoidheight>-74.3</geoidheight><src>gps</src><sat>76</sat><hdop>0.3</hdop><vdop>0.5</vdop><pdop>0.6</pdop><extensions><gpxtpx:TrackPointExtension><gpxtpx:bearing>41.5</gpxtpx:bearing><gpxtpx:speed>12.1</gpxtpx:speed></gpxtpx:TrackPointExtension></extensions></trkpt>
<trkpt lat="17.96000262" lon="73.80020627"><ele>684.6558837890625</ele><time>2026-09-19T06:16:39.000Z</time><geoidheight>-74.3</geoidheight><src>gps</src><sat>66</sat><hdop>0.3</hdop><vdop>0.5</vdop><pdop>0.6</pdop><extensions><gpxtpx:TrackPointExtension><gpxtpx:speed>0.0</gpxtpx:speed></gpxtpx:TrackPointExtension></extensions></trkpt>
<trkpt lat="17.9627275" lon="73.80122058"><ele>683.425537109375</ele><time>2026-09-19T06:17:45.000Z</time><geoidheight>-74.2</geoidheight><src>gps</src><sat>67</sat><hdop>0.3</hdop><vdop>0.5</vdop><pdop>0.6</pdop><extensions><gpxtpx:TrackPointExtension><gpxtpx:bearing>21.1</gpxtpx:bearing><gpxtpx:speed>12.57</gpxtpx:speed></gpxtpx:TrackPointExtension></extensions></trkpt>
<trkpt lat="17.96874561" lon="73.80653873"><ele>685.6094970703125</ele><time>2026-09-19T06:18:51.000Z</time><geoidheight>-74.2</geoidheight><src>gps</src><sat>70</sat><hdop>0.3</hdop><vdop>0.5</vdop><pdop>0.6</pdop><extensions><gpxtpx:TrackPointExtension><gpxtpx:bearing>74.3</gpxtpx:bearing><gpxtpx:speed>12.29</gpxtpx:speed></gpxtpx:TrackPointExtension></extensions></trkpt>
<trkpt lat="17.97188719" lon="73.81325749"><ele>681.8790283203125</ele><time>2026-09-19T06:19:57.000Z</time><geoidheight>-74.2</geoidheight><src>gps</src><sat>73</sat><hdop>0.3</hdop><vdop>0.5</vdop><pdop>0.6</pdop><extensions><gpxtpx:TrackPointExtension><gpxtpx:bearing>79.5</gpxtpx:bearing><gpxtpx:speed>15.62</gpxtpx:speed></gpxtpx:TrackPointExtension></extensions></trkpt>
<trkpt lat="17.97274367" lon="73.82068828"><ele>681.90869140625</ele><time>2026-09-19T06:21:03.000Z</time><geoidheight>-74.2</geoidheight><src>gps</src><sat>73</sat><hdop>0.3</hdop><vdop>0.5</vdop><pdop>0.6</pdop><extensions><gpxtpx:TrackPointExtension><gpxtpx:bearing>57.2</gpxtpx:bearing><gpxtpx:speed>12.56</gpxtpx:speed></gpxtpx:TrackPointExtension></extensions></trkpt>
<trkpt lat="17.96996294" lon="73.82962199"><ele>654.2486572265625</ele><time>2026-09-19T06:22:09.000Z</time><geoidheight>-74.1</geoidheight><src>gps</src><sat>72</sat><hdop>0.3</hdop><vdop>0.5</vdop><pdop>0.6</pdop><extensions><gpxtpx:TrackPointExtension><gpxtpx:bearing>116.3</gpxtpx:bearing><gpxtpx:speed>15.11</gpxtpx:speed></gpxtpx:TrackPointExtension></extensions></trkpt>
<trkpt lat="17.9670476" lon="73.83887571"><ele>655.8819580078125</ele><time>2026-09-19T06:23:14.000Z</time><geoidheight>-74.1</geoidheight><src>gps</src><sat>78</sat><hdop>0.3</hdop><vdop>0.5</vdop><pdop>0.5</pdop><extensions><gpxtpx:TrackPointExtension><gpxtpx:bearing>114.6</gpxtpx:bearing><gpxtpx:speed>14.6</gpxtpx:speed></gpxtpx:TrackPointExtension></extensions></trkpt>
<trkpt lat="17.96351941" lon="73.84723379"><ele>647.996826171875</ele><time>2026-09-19T06:24:20.000Z</time><geoidheight>-74.1</geoidheight><src>gps</src><sat>68</sat><hdop>0.3</hdop><vdop>0.5</vdop><pdop>0.6</pdop><extensions><gpxtpx:TrackPointExtension><gpxtpx:bearing>121.9</gpxtpx:bearing><gpxtpx:speed>13.94</gpxtpx:speed></gpxtpx:TrackPointExtension></extensions></trkpt>
<trkpt lat="17.96147657" lon="73.85591072"><ele>646.6455078125</ele><time>2026-09-19T06:25:27.000Z</time><geoidheight>-74.1</geoidheight><src>gps</src><sat>70</sat><hdop>0.3</hdop><vdop>0.5</vdop><pdop>0.6</pdop><extensions><gpxtpx:TrackPointExtension><gpxtpx:bearing>104.1</gpxtpx:bearing><gpxtpx:speed>9.84</gpxtpx:speed></gpxtpx:TrackPointExtension></extensions></trkpt>
<trkpt lat="17.95955242" lon="73.86324529"><ele>645.496826171875</ele><time>2026-09-19T06:26:33.000Z</time><geoidheight>-74.1</geoidheight><src>gps</src><sat>74</sat><hdop>0.3</hdop><vdop>0.5</vdop><pdop>0.6</pdop><extensions><gpxtpx:TrackPointExtension><gpxtpx:bearing>92.1</gpxtpx:bearing><gpxtpx:speed>11.37</gpxtpx:speed></gpxtpx:TrackPointExtension></extensions></trkpt>
<trkpt lat="17.95725203" lon="73.87009905"><ele>633.961669921875</ele><time>2026-09-19T06:27:40.000Z</time><geoidheight>-74.1</geoidheight><src>gps</src><sat>69</sat><hdop>0.3</hdop><vdop>0.5</vdop><pdop>0.6</pdop><extensions><gpxtpx:TrackPointExtension><gpxtpx:bearing>106.2</gpxtpx:bearing><gpxtpx:speed>14.37</gpxtpx:speed></gpxtpx:TrackPointExtension></extensions></trkpt>
<trkpt lat="17.95438927" lon="73.87710872"><ele>634.18359375</ele><time>2026-09-19T06:28:46.000Z</time><geoidheight>-74.1</geoidheight><src>gps</src><sat>74</sat><hdop>0.3</hdop><vdop>0.5</vdop><pdop>0.6</pdop><extensions><gpxtpx:TrackPointExtension><gpxtpx:bearing>118.8</gpxtpx:bearing><gpxtpx:speed>11.3</gpxtpx:speed></gpxtpx:TrackPointExtension></extensions></trkpt>
<trkpt lat="17.95218103" lon="73.88149166"><ele>632.2540283203125</ele><time>2026-09-19T06:29:51.000Z</time><geoidheight>-74.1</geoidheight><src>gps</src><sat>74</sat><hdop>0.3</hdop><vdop>0.5</vdop><pdop>0.6</pdop><extensions><gpxtpx:TrackPointExtension><gpxtpx:bearing>112.3</gpxtpx:bearing><gpxtpx:speed>6.34</gpxtpx:speed></gpxtpx:TrackPointExtension></extensions></trkpt>
<trkpt lat="17.95165421" lon="73.88454449"><ele>632.154541015625</ele><time>2026-09-19T06:30:58.000Z</time><geoidheight>-74.1</geoidheight><src>gps</src><sat>76</sat><hdop>0.3</hdop><vdop>0.5</vdop><pdop>0.6</pdop><extensions><gpxtpx:TrackPointExtension><gpxtpx:bearing>104.1</gpxtpx:bearing><gpxtpx:speed>1.48</gpxtpx:speed></gpxtpx:TrackPointExtension></extensions></trkpt>
<trkpt lat="17.94924518" lon="73.88714085"><ele>637.135986328125</ele><time>2026-09-19T06:32:04.000Z</time><geoidheight>-74.1</geoidheight><src>gps</src><sat>73</sat><hdop>0.3</hdop><vdop>0.5</vdop><pdop>0.6</pdop><extensions><gpxtpx:TrackPointExtension><gpxtpx:bearing>154.7</gpxtpx:bearing><gpxtpx:speed>9.75</gpxtpx:speed></gpxtpx:TrackPointExtension></extensions></trkpt>
<trkpt lat="17.94723296" lon="73.88829475"><ele>639.1865234375</ele><time>2026-09-19T06:33:11.000Z</time><geoidheight>-74.1</geoidheight><src>gps</src><sat>75</sat><hdop>0.3</hdop><vdop>0.5</vdop><pdop>0.6</pdop><extensions><gpxtpx:TrackPointExtension><gpxtpx:speed>0.0</gpxtpx:speed></gpxtpx:TrackPointExtension></extensions></trkpt>
<trkpt lat="17.94709645" lon="73.88830174"><ele>640.140869140625</ele><time>2026-09-19T06:42:26.000Z</time><geoidheight>-74.1</geoidheight><src>gps</src><sat>73</sat><hdop>0.3</hdop><vdop>0.5</vdop><pdop>0.6</pdop><extensions><gpxtpx:TrackPointExtension><gpxtpx:speed>0.0</gpxtpx:speed></gpxtpx:TrackPointExtension></extensions></trkpt>
<trkpt lat="17.94648942" lon="73.88844403"><ele>638.96044921875</ele><time>2026-09-19T06:46:37.000Z</time><geoidheight>-74.1</geoidheight><src>gps</src><sat>74</sat><hdop>0.3</hdop><vdop>0.5</vdop><pdop>0.6</pdop><extensions><gpxtpx:TrackPointExtension><gpxtpx:bearing>155.8</gpxtpx:bearing><gpxtpx:speed>9.53</gpxtpx:speed></gpxtpx:TrackPointExtension></extensions></trkpt>
<trkpt lat="17.94211707" lon="73.89255827"><ele>636.161376953125</ele><time>2026-09-19T06:47:44.000Z</time><geoidheight>-74.1</geoidheight><src>gps</src><sat>74</sat><hdop>0.3</hdop><vdop>0.5</vdop><pdop>0.6</pdop><extensions><gpxtpx:TrackPointExtension><gpxtpx:bearing>131.9</gpxtpx:bearing><gpxtpx:speed>10.88</gpxtpx:speed></gpxtpx:TrackPointExtension></extensions></trkpt>
<trkpt lat="17.94010514" lon="73.89728638"><ele>631.3857421875</ele><time>2026-09-19T06:48:51.000Z</time><geoidheight>-74.1</geoidheight><src>gps</src><sat>74</sat><hdop>0.3</hdop><vdop>0.5</vdop><pdop>0.6</pdop><extensions><gpxtpx:TrackPointExtension><gpxtpx:bearing>68.2</gpxtpx:bearing><gpxtpx:speed>12.77</gpxtpx:speed></gpxtpx:TrackPointExtension></extensions></trkpt>
<trkpt lat="17.94250259" lon="73.90384562"><ele>633.8692626953125</ele><time>2026-09-19T06:49:58.000Z</time><geoidheight>-74.1</geoidheight><src>gps</src><sat>74</sat><hdop>0.3</hdop><vdop>0.5</vdop><pdop>0.6</pdop><extensions><gpxtpx:TrackPointExtension><gpxtpx:bearing>69.1</gpxtpx:bearing><gpxtpx:speed>11.21</gpxtpx:speed></gpxtpx:TrackPointExtension></extensions></trkpt>
<trkpt lat="17.94629042" lon="73.91032551"><ele>638.341064453125</ele><time>2026-09-19T06:51:05.000Z</time><geoidheight>-74.0</geoidheight><src>gps</src><sat>74</sat><hdop>0.3</hdop><vdop>0.5</vdop><pdop>0.6</pdop><extensions><gpxtpx:TrackPointExtension><gpxtpx:bearing>48.2</gpxtpx:bearing><gpxtpx:speed>11.78</gpxtpx:speed></gpxtpx:TrackPointExtension></extensions></trkpt>
<trkpt lat="17.94860028" lon="73.91543549"><ele>640.97607421875</ele><time>2026-09-19T06:52:12.000Z</time><geoidheight>-74.0</geoidheight><src>gps</src><sat>72</sat><hdop>0.3</hdop><vdop>0.5</vdop><pdop>0.6</pdop><extensions><gpxtpx:TrackPointExtension><gpxtpx:bearing>83.6</gpxtpx:bearing><gpxtpx:speed>8.85</gpxtpx:speed></gpxtpx:TrackPointExtension></extensions></trkpt>
<trkpt lat="17.94835823" lon="73.92356456"><ele>651.8564453125</ele><time>2026-09-19T06:53:18.000Z</time><geoidheight>-74.0</geoidheight><src>gps</src><sat>73</sat><hdop>0.3</hdop><vdop>0.5</vdop><pdop>0.6</pdop><extensions><gpxtpx:TrackPointExtension><gpxtpx:bearing>82.9</gpxtpx:bearing><gpxtpx:speed>16.0</gpxtpx:speed></gpxtpx:TrackPointExtension></extensions></trkpt>
<trkpt lat="17.94906398" lon="73.9327124"><ele>661.308837890625</ele><time>2026-09-19T06:54:24.000Z</time><geoidheight>-74.0</geoidheight><src>gps</src><sat>73</sat><hdop>0.3</hdop><vdop>0.5</vdop><pdop>0.6</pdop><extensions><gpxtpx:TrackPointExtension><gpxtpx:bearing>85.0</gpxtpx:bearing><gpxtpx:speed>16.65</gpxtpx:speed></gpxtpx:TrackPointExtension></extensions></trkpt>
<trkpt lat="17.95053038" lon="73.94246012"><ele>677.566650390625</ele><time>2026-09-19T06:55:31.000Z</time><geoidheight>-73.9</geoidheight><src>gps</src><sat>72</sat><hdop>0.3</hdop><vdop>0.5</vdop><pdop>0.6</pdop><extensions><gpxtpx:TrackPointExtension><gpxtpx:bearing>74.1</gpxtpx:bearing><gpxtpx:speed>14.57</gpxtpx:speed></gpxtpx:TrackPointExtension></extensions></trkpt>
<trkpt lat="17.9534442" lon="73.95261281"><ele>687.807373046875</ele><time>2026-09-19T06:56:37.000Z</time><geoidheight>-73.9</geoidheight><src>gps</src><sat>74</sat><hdop>0.3</hdop><vdop>0.5</vdop><pdop>0.6</pdop><extensions><gpxtpx:TrackPointExtension><gpxtpx:bearing>67.9</gpxtpx:bearing><gpxtpx:speed>18.7</gpxtpx:speed></gpxtpx:TrackPointExtension></extensions></trkpt>
<trkpt lat="17.95833306" lon="73.96239429"><ele>690.15234375</ele><time>2026-09-19T06:57:43.000Z</time><geoidheight>-73.8</geoidheight><src>gps</src><sat>73</sat><hdop>0.3</hdop><vdop>0.5</vdop><pdop>0.6</pdop><extensions><gpxtpx:TrackPointExtension><gpxtpx:bearing>62.0</gpxtpx:bearing><gpxtpx:speed>15.92</gpxtpx:speed></gpxtpx:TrackPointExtension></extensions></trkpt>
<trkpt lat="17.96171704" lon="73.97181176"><ele>691.9130859375</ele><time>2026-09-19T06:58:50.000Z</time><geoidheight>-73.8</geoidheight><src>gps</src><sat>74</sat><hdop>0.3</hdop><vdop>0.5</vdop><pdop>0.6</pdop><extensions><gpxtpx:TrackPointExtension><gpxtpx:bearing>68.5</gpxtpx:bearing><gpxtpx:speed>18.88</gpxtpx:speed></gpxtpx:TrackPointExtension></extensions></trkpt>
<trkpt lat="17.96543763" lon="73.98190093"><ele>693.229248046875</ele><time>2026-09-19T06:59:57.000Z</time><geoidheight>-73.8</geoidheight><src>gps</src><sat>74</sat><hdop>0.3</hdop><vdop>0.5</vdop><pdop>0.6</pdop><extensions><gpxtpx:TrackPointExtension><gpxtpx:bearing>88.6</gpxtpx:bearing><gpxtpx:speed>3.46</gpxtpx:speed></gpxtpx:TrackPointExtension></extensions></trkpt>
<trkpt lat="17.96641501" lon="73.98507893"><ele>692.4263916015625</ele><time>2026-09-19T07:01:04.000Z</time><geoidheight>-73.7</geoidheight><src>gps</src><sat>74</sat><hdop>0.3</hdop><vdop>0.5</vdop><pdop>0.6</pdop><extensions><gpxtpx:TrackPointExtension><gpxtpx:bearing>10.4</gpxtpx:bearing><gpxtpx:speed>4.38</gpxtpx:speed></gpxtpx:TrackPointExtension></extensions></trkpt>
<trkpt lat="17.97232189" lon="73.98643468"><ele>708.4798583984375</ele><time>2026-09-19T07:02:10.000Z</time><geoidheight>-73.7</geoidheight><src>gps</src><sat>72</sat><hdop>0.3</hdop><vdop>0.5</vdop><pdop>0.6</pdop><extensions><gpxtpx:TrackPointExtension><gpxtpx:bearing>12.3</gpxtpx:bearing><gpxtpx:speed>13.51</gpxtpx:speed></gpxtpx:TrackPointExtension></extensions></trkpt>
<trkpt lat="17.98472554" lon="73.98875008"><ele>724.849365234375</ele><time>2026-09-19T07:03:16.000Z</time><geoidheight>-73.7</geoidheight><src>gps</src><sat>75</sat><hdop>0.3</hdop><vdop>0.5</vdop><pdop>0.6</pdop><extensions><gpxtpx:TrackPointExtension><gpxtpx:bearing>17.3</gpxtpx:bearing><gpxtpx:speed>23.31</gpxtpx:speed></gpxtpx:TrackPointExtension></extensions></trkpt>
<trkpt lat="17.99524567" lon="73.99307793"><ele>753.6129150390625</ele><time>2026-09-19T07:04:21.000Z</time><geoidheight>-73.6</geoidheight><src>gps</src><sat>74</sat><hdop>0.3</hdop><vdop>0.5</vdop><pdop>0.6</pdop><extensions><gpxtpx:TrackPointExtension><gpxtpx:bearing>31.0</gpxtpx:bearing><gpxtpx:speed>14.98</gpxtpx:speed></gpxtpx:TrackPointExtension></extensions></trkpt>
<trkpt lat="18.00384655" lon="73.99566513"><ele>758.951416015625</ele><time>2026-09-19T07:05:28.000Z</time><geoidheight>-73.6</geoidheight><src>gps</src><sat>72</sat><hdop>0.3</hdop><vdop>0.5</vdop><pdop>0.6</pdop><extensions><gpxtpx:TrackPointExtension><gpxtpx:bearing>23.1</gpxtpx:bearing><gpxtpx:speed>16.02</gpxtpx:speed></gpxtpx:TrackPointExtension></extensions></trkpt>
<trkpt lat="18.02643574" lon="74.00399139"><ele>690.687744140625</ele><time>2026-09-19T07:07:41.000Z</time><geoidheight>-73.5</geoidheight><src>gps</src><sat>70</sat><hdop>0.3</hdop><vdop>0.5</vdop><pdop>0.6</pdop><extensions><gpxtpx:TrackPointExtension><gpxtpx:bearing>65.6</gpxtpx:bearing><gpxtpx:speed>22.11</gpxtpx:speed></gpxtpx:TrackPointExtension></extensions></trkpt>
<trkpt lat="18.03338284" lon="74.01416653"><ele>641.0947265625</ele><time>2026-09-19T07:08:48.000Z</time><geoidheight>-73.5</geoidheight><src>gps</src><sat>70</sat><hdop>0.3</hdop><vdop>0.5</vdop><pdop>0.6</pdop><extensions><gpxtpx:TrackPointExtension><gpxtpx:bearing>12.6</gpxtpx:bearing><gpxtpx:speed>23.51</gpxtpx:speed></gpxtpx:TrackPointExtension></extensions></trkpt>
<trkpt lat="18.04586139" lon="74.01537768"><ele>608.43212890625</ele><time>2026-09-19T07:09:54.000Z</time><geoidheight>-73.4</geoidheight><src>gps</src><sat>74</sat><hdop>0.3</hdop><vdop>0.5</vdop><pdop>0.6</pdop><extensions><gpxtpx:TrackPointExtension><gpxtpx:bearing>345.6</gpxtpx:bearing><gpxtpx:speed>18.03</gpxtpx:speed></gpxtpx:TrackPointExtension></extensions></trkpt>
<trkpt lat="18.05658752" lon="74.01220752"><ele>590.708740234375</ele><time>2026-09-19T07:11:01.000Z</time><geoidheight>-73.4</geoidheight><src>gps</src><sat>73</sat><hdop>0.3</hdop><vdop>0.5</vdop><pdop>0.6</pdop><extensions><gpxtpx:TrackPointExtension><gpxtpx:bearing>324.2</gpxtpx:bearing><gpxtpx:speed>18.04</gpxtpx:speed></gpxtpx:TrackPointExtension></extensions></trkpt>
<trkpt lat="18.06814164" lon="74.0079329"><ele>583.86767578125</ele><time>2026-09-19T07:12:08.000Z</time><geoidheight>-73.4</geoidheight><src>gps</src><sat>75</sat><hdop>0.3</hdop><vdop>0.5</vdop><pdop>0.6</pdop><extensions><gpxtpx:TrackPointExtension><gpxtpx:bearing>339.6</gpxtpx:bearing><gpxtpx:speed>21.86</gpxtpx:speed></gpxtpx:TrackPointExtension></extensions></trkpt>
<trkpt lat="18.07911876" lon="74.00201174"><ele>599.044677734375</ele><time>2026-09-19T07:13:14.000Z</time><geoidheight>-73.3</geoidheight><src>gps</src><sat>75</sat><hdop>0.3</hdop><vdop>0.5</vdop><pdop>0.6</pdop><extensions><gpxtpx:TrackPointExtension><gpxtpx:bearing>330.3</gpxtpx:bearing><gpxtpx:speed>22.83</gpxtpx:speed></gpxtpx:TrackPointExtension></extensions></trkpt>
<trkpt lat="18.090399" lon="73.996367"><ele>590.017822265625</ele><time>2026-09-19T07:14:20.000Z</time><geoidheight>-73.3</geoidheight><src>gps</src><sat>75</sat><hdop>0.3</hdop><vdop>0.5</vdop><pdop>0.6</pdop><extensions><gpxtpx:TrackPointExtension><gpxtpx:bearing>343.2</gpxtpx:bearing><gpxtpx:speed>22.45</gpxtpx:speed></gpxtpx:TrackPointExtension></extensions></trkpt>
<trkpt lat="18.10253755" lon="73.99048507"><ele>568.11572265625</ele><time>2026-09-19T07:15:27.000Z</time><geoidheight>-73.3</geoidheight><src>gps</src><sat>75</sat><hdop>0.3</hdop><vdop>0.5</vdop><pdop>0.5</pdop><extensions><gpxtpx:TrackPointExtension><gpxtpx:bearing>342.8</gpxtpx:bearing><gpxtpx:speed>14.3</gpxtpx:speed></gpxtpx:TrackPointExtension></extensions></trkpt>
<trkpt lat="18.1138842" lon="73.98900509"><ele>550.19384765625</ele><time>2026-09-19T07:16:34.000Z</time><geoidheight>-73.2</geoidheight><src>gps</src><sat>75</sat><hdop>0.3</hdop><vdop>0.5</vdop><pdop>0.5</pdop><extensions><gpxtpx:TrackPointExtension><gpxtpx:bearing>340.8</gpxtpx:bearing><gpxtpx:speed>24.07</gpxtpx:speed></gpxtpx:TrackPointExtension></extensions></trkpt>
<trkpt lat="18.12758492" lon="73.98398138"><ele>543.41796875</ele><time>2026-09-19T07:17:40.000Z</time><geoidheight>-73.2</geoidheight><src>gps</src><sat>76</sat><hdop>0.3</hdop><vdop>0.5</vdop><pdop>0.5</pdop><extensions><gpxtpx:TrackPointExtension><gpxtpx:bearing>339.6</gpxtpx:bearing><gpxtpx:speed>22.05</gpxtpx:speed></gpxtpx:TrackPointExtension></extensions></trkpt>
<trkpt lat="18.14004988" lon="73.97834938"><ele>529.1142578125</ele><time>2026-09-19T07:18:47.000Z</time><geoidheight>-73.2</geoidheight><src>gps</src><sat>75</sat><hdop>0.3</hdop><vdop>0.4</vdop><pdop>0.5</pdop><extensions><gpxtpx:TrackPointExtension><gpxtpx:bearing>338.6</gpxtpx:bearing><gpxtpx:speed>22.3</gpxtpx:speed></gpxtpx:TrackPointExtension></extensions></trkpt>
<trkpt lat="18.14921176" lon="73.97361634"><ele>522.7538452148438</ele><time>2026-09-19T07:19:52.000Z</time><geoidheight>-73.2</geoidheight><src>gps</src><sat>76</sat><hdop>0.3</hdop><vdop>0.4</vdop><pdop>0.5</pdop><extensions><gpxtpx:TrackPointExtension><gpxtpx:bearing>316.7</gpxtpx:bearing><gpxtpx:speed>19.1</gpxtpx:speed></gpxtpx:TrackPointExtension></extensions></trkpt>
<trkpt lat="18.15601173" lon="73.96273286"><ele>526.66845703125</ele><time>2026-09-19T07:20:58.000Z</time><geoidheight>-73.2</geoidheight><src>gps</src><sat>75</sat><hdop>0.3</hdop><vdop>0.4</vdop><pdop>0.5</pdop><extensions><gpxtpx:TrackPointExtension><gpxtpx:bearing>301.1</gpxtpx:bearing><gpxtpx:speed>22.66</gpxtpx:speed></gpxtpx:TrackPointExtension></extensions></trkpt>
<trkpt lat="18.16542399" lon="73.9535795"><ele>535.008056640625</ele><time>2026-09-19T07:22:04.000Z</time><geoidheight>-73.1</geoidheight><src>gps</src><sat>74</sat><hdop>0.3</hdop><vdop>0.5</vdop><pdop>0.6</pdop><extensions><gpxtpx:TrackPointExtension><gpxtpx:bearing>346.5</gpxtpx:bearing><gpxtpx:speed>21.95</gpxtpx:speed></gpxtpx:TrackPointExtension></extensions></trkpt>
<trkpt lat="18.17684462" lon="73.95521707"><ele>526.455810546875</ele><time>2026-09-19T07:23:10.000Z</time><geoidheight>-73.1</geoidheight><src>gps</src><sat>73</sat><hdop>0.3</hdop><vdop>0.5</vdop><pdop>0.6</pdop><extensions><gpxtpx:TrackPointExtension><gpxtpx:bearing>348.9</gpxtpx:bearing><gpxtpx:speed>19.18</gpxtpx:speed></gpxtpx:TrackPointExtension></extensions></trkpt>
<trkpt lat="18.18861643" lon="73.95153505"><ele>538.151123046875</ele><time>2026-09-19T07:24:16.000Z</time><geoidheight>-73.1</geoidheight><src>gps</src><sat>75</sat><hdop>0.3</hdop><vdop>0.5</vdop><pdop>0.6</pdop><extensions><gpxtpx:TrackPointExtension><gpxtpx:bearing>342.3</gpxtpx:bearing><gpxtpx:speed>22.73</gpxtpx:speed></gpxtpx:TrackPointExtension></extensions></trkpt>
<trkpt lat="18.20053683" lon="73.94662989"><ele>549.7265625</ele><time>2026-09-19T07:25:22.000Z</time><geoidheight>-73.0</geoidheight><src>gps</src><sat>73</sat><hdop>0.3</hdop><vdop>0.5</vdop><pdop>0.6</pdop><extensions><gpxtpx:TrackPointExtension><gpxtpx:bearing>322.0</gpxtpx:bearing><gpxtpx:speed>16.3</gpxtpx:speed></gpxtpx:TrackPointExtension></extensions></trkpt>
<trkpt lat="18.20576931" lon="73.93746367"><ele>563.868896484375</ele><time>2026-09-19T07:26:28.000Z</time><geoidheight>-73.0</geoidheight><src>gps</src><sat>72</sat><hdop>0.3</hdop><vdop>0.5</vdop><pdop>0.6</pdop><extensions><gpxtpx:TrackPointExtension><gpxtpx:bearing>311.8</gpxtpx:bearing><gpxtpx:speed>21.24</gpxtpx:speed></gpxtpx:TrackPointExtension></extensions></trkpt>
<trkpt lat="18.21593473" lon="73.92731084"><ele>560.97900390625</ele><time>2026-09-19T07:27:34.000Z</time><geoidheight>-73.0</geoidheight><src>gps</src><sat>73</sat><hdop>0.3</hdop><vdop>0.5</vdop><pdop>0.6</pdop><extensions><gpxtpx:TrackPointExtension><gpxtpx:bearing>318.1</gpxtpx:bearing><gpxtpx:speed>24.76</gpxtpx:speed></gpxtpx:TrackPointExtension></extensions></trkpt>
<trkpt lat="18.22613934" lon="73.91806539"><ele>566.8570556640625</ele><time>2026-09-19T07:28:41.000Z</time><geoidheight>-73.0</geoidheight><src>gps</src><sat>74</sat><hdop>0.3</hdop><vdop>0.5</vdop><pdop>0.5</pdop><extensions><gpxtpx:TrackPointExtension><gpxtpx:bearing>318.0</gpxtpx:bearing><gpxtpx:speed>21.37</gpxtpx:speed></gpxtpx:TrackPointExtension></extensions></trkpt>
<trkpt lat="18.23276112" lon="73.91211199"><ele>568.463134765625</ele><time>2026-09-19T07:29:47.000Z</time><geoidheight>-73.0</geoidheight><src>gps</src><sat>76</sat><hdop>0.3</hdop><vdop>0.5</vdop><pdop>0.5</pdop><extensions><gpxtpx:TrackPointExtension><gpxtpx:bearing>318.6</gpxtpx:bearing><gpxtpx:speed>9.35</gpxtpx:speed></gpxtpx:TrackPointExtension></extensions></trkpt>
<trkpt lat="18.23638089" lon="73.9059552"><ele>586.66259765625</ele><time>2026-09-19T07:30:53.000Z</time><geoidheight>-73.0</geoidheight><src>gps</src><sat>75</sat><hdop>0.3</hdop><vdop>0.4</vdop><pdop>0.5</pdop><extensions><gpxtpx:TrackPointExtension><gpxtpx:bearing>298.5</gpxtpx:bearing><gpxtpx:speed>18.82</gpxtpx:speed></gpxtpx:TrackPointExtension></extensions></trkpt>
<trkpt lat="18.24640407" lon="73.8969042"><ele>589.7271728515625</ele><time>2026-09-19T07:31:59.000Z</time><geoidheight>-73.0</geoidheight><src>gps</src><sat>75</sat><hdop>0.3</hdop><vdop>0.4</vdop><pdop>0.5</pdop><extensions><gpxtpx:TrackPointExtension><gpxtpx:bearing>322.6</gpxtpx:bearing><gpxtpx:speed>25.0</gpxtpx:speed></gpxtpx:TrackPointExtension></extensions></trkpt>
<trkpt lat="18.25589702" lon="73.88892621"><ele>592.6917724609375</ele><time>2026-09-19T07:33:05.000Z</time><geoidheight>-72.9</geoidheight><src>gps</src><sat>78</sat><hdop>0.3</hdop><vdop>0.4</vdop><pdop>0.5</pdop><extensions><gpxtpx:TrackPointExtension><gpxtpx:bearing>302.1</gpxtpx:bearing><gpxtpx:speed>19.09</gpxtpx:speed></gpxtpx:TrackPointExtension></extensions></trkpt>
<trkpt lat="18.26504345" lon="73.88219531"><ele>613.880126953125</ele><time>2026-09-19T07:34:11.000Z</time><geoidheight>-72.9</geoidheight><src>gps</src><sat>75</sat><hdop>0.3</hdop><vdop>0.4</vdop><pdop>0.5</pdop><extensions><gpxtpx:TrackPointExtension><gpxtpx:bearing>336.1</gpxtpx:bearing><gpxtpx:speed>17.95</gpxtpx:speed></gpxtpx:TrackPointExtension></extensions></trkpt>
<trkpt lat="18.27825173" lon="73.87708702"><ele>620.6806640625</ele><time>2026-09-19T07:35:18.000Z</time><geoidheight>-72.9</geoidheight><src>gps</src><sat>69</sat><hdop>0.3</hdop><vdop>0.5</vdop><pdop>0.6</pdop><extensions><gpxtpx:TrackPointExtension><gpxtpx:bearing>341.7</gpxtpx:bearing><gpxtpx:speed>24.57</gpxtpx:speed></gpxtpx:TrackPointExtension></extensions></trkpt>
<trkpt lat="18.29158938" lon="73.872391"><ele>631.4732666015625</ele><time>2026-09-19T07:36:24.000Z</time><geoidheight>-72.8</geoidheight><src>gps</src><sat>76</sat><hdop>0.3</hdop><vdop>0.4</vdop><pdop>0.5</pdop><extensions><gpxtpx:TrackPointExtension><gpxtpx:bearing>341.2</gpxtpx:bearing><gpxtpx:speed>20.87</gpxtpx:speed></gpxtpx:TrackPointExtension></extensions></trkpt>
<trkpt lat="18.30185444" lon="73.87223052"><ele>647.21826171875</ele><time>2026-09-19T07:37:30.000Z</time><geoidheight>-72.8</geoidheight><src>gps</src><sat>77</sat><hdop>0.3</hdop><vdop>0.4</vdop><pdop>0.5</pdop><extensions><gpxtpx:TrackPointExtension><gpxtpx:bearing>316.3</gpxtpx:bearing><gpxtpx:speed>18.0</gpxtpx:speed></gpxtpx:TrackPointExtension></extensions></trkpt>
<trkpt lat="18.31144766" lon="73.86630147"><ele>660.699462890625</ele><time>2026-09-19T07:38:37.000Z</time><geoidheight>-72.8</geoidheight><src>gps</src><sat>79</sat><hdop>0.3</hdop><vdop>0.4</vdop><pdop>0.5</pdop><extensions><gpxtpx:TrackPointExtension><gpxtpx:bearing>329.2</gpxtpx:bearing><gpxtpx:speed>23.46</gpxtpx:speed></gpxtpx:TrackPointExtension></extensions></trkpt>
<trkpt lat="18.32116282" lon="73.85739943"><ele>661.182373046875</ele><time>2026-09-19T07:39:43.000Z</time><geoidheight>-72.7</geoidheight><src>gps</src><sat>75</sat><hdop>0.3</hdop><vdop>0.4</vdop><pdop>0.5</pdop><extensions><gpxtpx:TrackPointExtension><gpxtpx:bearing>320.7</gpxtpx:bearing><gpxtpx:speed>18.85</gpxtpx:speed></gpxtpx:TrackPointExtension></extensions></trkpt>
<trkpt lat="18.32933726" lon="73.85215547"><ele>680.019287109375</ele><time>2026-09-19T07:40:49.000Z</time><geoidheight>-72.7</geoidheight><src>gps</src><sat>77</sat><hdop>0.3</hdop><vdop>0.4</vdop><pdop>0.5</pdop><extensions><gpxtpx:TrackPointExtension><gpxtpx:bearing>11.0</gpxtpx:bearing><gpxtpx:speed>16.82</gpxtpx:speed></gpxtpx:TrackPointExtension></extensions></trkpt>
<trkpt lat="18.33310458" lon="73.85238308"><ele>684.969482421875</ele><time>2026-09-19T07:41:56.000Z</time><geoidheight>-72.7</geoidheight><src>gps</src><sat>73</sat><hdop>0.3</hdop><vdop>0.4</vdop><pdop>0.5</pdop><extensions><gpxtpx:TrackPointExtension><gpxtpx:speed>0.0</gpxtpx:speed></gpxtpx:TrackPointExtension></extensions></trkpt>
<trkpt lat="18.33308126" lon="73.85222494"><ele>681.46337890625</ele><time>2026-09-19T07:44:04.000Z</time><geoidheight>-72.7</geoidheight><src>gps</src><sat>60</sat><hdop>0.4</hdop><vdop>0.5</vdop><pdop>0.6</pdop><extensions><gpxtpx:TrackPointExtension><gpxtpx:speed>0.0</gpxtpx:speed></gpxtpx:TrackPointExtension></extensions></trkpt>
<trkpt lat="18.33311665" lon="73.85238497"><ele>680.679443359375</ele><time>2026-09-19T08:13:48.000Z</time><geoidheight>-72.7</geoidheight><src>gps</src><sat>59</sat><hdop>0.4</hdop><vdop>0.5</vdop><pdop>0.6</pdop><extensions><gpxtpx:TrackPointExtension><gpxtpx:speed>0.0</gpxtpx:speed></gpxtpx:TrackPointExtension></extensions></trkpt>
<trkpt lat="18.33395488" lon="73.85247504"><ele>683.9251708984375</ele><time>2026-09-19T08:14:54.000Z</time><geoidheight>-72.7</geoidheight><src>gps</src><sat>65</sat><hdop>0.3</hdop><vdop>0.5</vdop><pdop>0.6</pdop><extensions><gpxtpx:TrackPointExtension><gpxtpx:bearing>7.3</gpxtpx:bearing><gpxtpx:speed>6.99</gpxtpx:speed></gpxtpx:TrackPointExtension></extensions></trkpt>
<trkpt lat="18.33522504" lon="73.85237106"><ele>686.767822265625</ele><time>2026-09-19T08:16:00.000Z</time><geoidheight>-72.7</geoidheight><src>gps</src><sat>75</sat><hdop>0.3</hdop><vdop>0.4</vdop><pdop>0.5</pdop><extensions><gpxtpx:TrackPointExtension><gpxtpx:bearing>279.4</gpxtpx:bearing><gpxtpx:speed>0.22</gpxtpx:speed></gpxtpx:TrackPointExtension></extensions></trkpt>
<trkpt lat="18.33522843" lon="73.85214844"><ele>682.26318359375</ele><time>2026-09-19T08:17:08.000Z</time><geoidheight>-72.7</geoidheight><src>gps</src><sat>34</sat><hdop>0.8</hdop><vdop>0.7</vdop><pdop>1.0</pdop><extensions><gpxtpx:TrackPointExtension><gpxtpx:speed>0.0</gpxtpx:speed></gpxtpx:TrackPointExtension></extensions></trkpt>
</trkseg></trk></gpx>